{"type":"FeatureCollection","features":[{"type":"Feature","geometry":{"type":"LineString","coordinates":[[-89.380758,43.055785],[-89.380718,43.055734],[-89.380683,43.055629],[-89.380685,43.055474],[-89.380693,43.055371],[-89.380687,43.055274],[-89.380668,43.055207],[-89.380638,43.055155],[-89.380235,43.054762],[-89.3800939,43.0546245],[-89.3798486,43.0544425]]},"properties":{"highway":"residential","name":"Olin-Turville Court","surface":"asphalt","osm_id":6657380}},{"type":"Feature","geometry":{"type":"LineString","coordinates":[[-89.375391,43.0759958],[-89.3754254,43.0760031],[-89.3754542,43.0760085]]},"properties":{"crossing":"traffic_signals","cycleway":"crossing","highway":"cycleway","name":"Capital City State Trail","segregated":"no","osm_id":6680214}},{"type":"Feature","geometry":{"type":"LineString","coordinates":[[-89.3954076,43.0190428],[-89.395449,43.0190397],[-89.3955104,43.0190545],[-89.3955422,43.01909],[-89.3955478,43.0191459],[-89.3955515,43.0192142],[-89.3955673,43.0192953],[-89.3956001,43.0193417],[-89.3956326,43.0193777],[-89.3957195,43.0194331],[-89.3958377,43.0194742],[-89.3959815,43.0194811],[-89.3961491,43.0194879],[-89.3962696,43.0194801],[-89.3963444,43.0194467],[-89.3964425,43.0193862],[-89.3965014,43.0193652],[-89.3965363,43.019341],[-89.3966317,43.0193148],[-89.3967859,43.0193279],[-89.3970523,43.0193721],[-89.3972564,43.0193762],[-89.397452,43.0193651],[-89.397812,43.0192986],[-89.398169,43.0192295],[-89.3983174,43.0191808],[-89.398601,43.0190608],[-89.398976,43.018882],[-89.3991368,43.0187796],[-89.3992013,43.0186982],[-89.3992569,43.0185687],[-89.3993311,43.0183091],[-89.3993778,43.0182187],[-89.3994232,43.0181685],[-89.3994939,43.0181218],[-89.3995777,43.0180916],[-89.399656,43.0180791],[-89.4014169,43.0181063],[-89.4014984,43.0180873],[-89.4016765,43.0179899],[-89.4017705,43.0179469],[-89.4019318,43.0179181],[-89.4027817,43.0178741],[-89.4031576,43.0178525],[-89.4032866,43.0178238],[-89.4038701,43.0176269],[-89.4053834,43.0171467],[-89.4054442,43.0171227],[-89.4054944,43.0170934],[-89.4055233,43.0170548],[-89.4055484,43.0169603],[-89.4055863,43.0168548],[-89.4056485,43.0167876],[-89.4057304,43.0167248],[-89.4058655,43.01664],[-89.4061012,43.0164064],[-89.4063151,43.0161888],[-89.4064128,43.0160799],[-89.4064928,43.0160214],[-89.4067332,43.0159193],[-89.4067957,43.0158591],[-89.4068113,43.0158116],[-89.4068099,43.0154653],[-89.4068401,43.0153763],[-89.4071329,43.014789],[-89.4074279,43.0142079],[-89.407565,43.0138981],[-89.4076142,43.0135974],[-89.4076681,43.0132311],[-89.407688,43.013161],[-89.4077299,43.0130987],[-89.4077832,43.0130519],[-89.4078499,43.0130084],[-89.4085803,43.0126903],[-89.4090112,43.0124888],[-89.4096821,43.0121554],[-89.4098626,43.0120645],[-89.4099818,43.0119819],[-89.4106038,43.0114953],[-89.4111993,43.0109573],[-89.4118773,43.0104509],[-89.4120977,43.0102913],[-89.4121993,43.0102178],[-89.412403,43.010139],[-89.4125909,43.0101175],[-89.412749,43.0101449],[-89.412919,43.0102087],[-89.4131335,43.0102848],[-89.4132841,43.010299],[-89.4134373,43.0102884],[-89.4148254,43.0100445],[-89.4150551,43.0100072],[-89.4158957,43.0098708],[-89.4161676,43.009881],[-89.4163606,43.0099269],[-89.4165017,43.0099444],[-89.4167848,43.0099467],[-89.4170152,43.0099935],[-89.4172936,43.0100754],[-89.4177256,43.0101153],[-89.4181589,43.0102374],[-89.4185277,43.0102675],[-89.4205056,43.0103311],[-89.4209911,43.0103447],[-89.4211322,43.0103656],[-89.4213531,43.0104553],[-89.4217233,43.0105957],[-89.4222476,43.0107895],[-89.4226317,43.0108894],[-89.4239617,43.0112217],[-89.4240738,43.0112316],[-89.4250642,43.0112103]]},"properties":{"bicycle":"designated","fee":"yes","foot":"designated","highway":"cycleway","lit":"no","motor_vehicle":"no","name":"Capital City State Trail","oneway":"no","segregated":"no","surface":"asphalt","width":"10'","osm_id":6721062}},{"type":"Feature","geometry":{"type":"LineString","coordinates":[[-89.4326396,43.0218678],[-89.432779,43.021913],[-89.433022,43.021939],[-89.433218,43.021922],[-89.433598,43.0218424],[-89.4339063,43.0217347],[-89.4341487,43.0216205],[-89.434841,43.0214031],[-89.4351855,43.0212952],[-89.4358722,43.0212827],[-89.436482,43.021197],[-89.4370642,43.0211575],[-89.4370955,43.0211589],[-89.4371664,43.0211579],[-89.4372658,43.0211542],[-89.4372818,43.0211552],[-89.4377184,43.0211638],[-89.4379367,43.0211671],[-89.438155,43.0211795],[-89.438447,43.021218],[-89.438922,43.021314],[-89.43915,43.021383],[-89.4394303,43.0215087],[-89.4395402,43.0215489],[-89.4396276,43.0215709],[-89.4402205,43.0216739],[-89.4403095,43.0217078],[-89.44037,43.0217441],[-89.4404067,43.02179],[-89.4404273,43.0218429],[-89.4404369,43.0219267],[-89.4404427,43.0221673],[-89.4404443,43.02227],[-89.4404741,43.0223712],[-89.4405139,43.0224399],[-89.4405673,43.0224859],[-89.4406314,43.022519],[-89.4407068,43.0225383],[-89.4408293,43.0225496],[-89.4417132,43.0225505],[-89.441932,43.022551],[-89.4420571,43.0225543],[-89.4422801,43.022607],[-89.442354,43.022614],[-89.4424562,43.0226069],[-89.442923,43.0225461],[-89.4430386,43.0225352],[-89.4431674,43.0225302],[-89.443298,43.022533],[-89.4437145,43.0225413],[-89.4442878,43.022571],[-89.4444592,43.02257],[-89.444621,43.022555],[-89.4447536,43.0225486],[-89.444891,43.0225545],[-89.4450749,43.022582],[-89.4452268,43.0225788],[-89.4454289,43.0225647],[-89.445709,43.022555],[-89.4466378,43.022558],[-89.4468177,43.0225519],[-89.4469573,43.0225291],[-89.447187,43.0225279],[-89.447676,43.0225709],[-89.4480672,43.0225903],[-89.4485154,43.0225999],[-89.4486917,43.0225967],[-89.4488162,43.0225713],[-89.4488869,43.0225381]]},"properties":{"bicycle":"designated","fee":"yes","foot":"designated","highway":"cycleway","motor_vehicle":"no","name":"Capital City State Trail","oneway":"no","segregated":"no","surface":"asphalt","width":"10'","osm_id":22820817}},{"type":"Feature","geometry":{"type":"LineString","coordinates":[[-89.3853312,43.059859],[-89.3856348,43.0602076]]},"properties":{"bicycle":"designated","bridge":"yes","foot":"designated","highway":"cycleway","name":"Capital City State Trail","segregated":"no","surface":"asphalt","osm_id":32263510}},{"type":"Feature","geometry":{"type":"LineString","coordinates":[[-89.3864306,43.0647358],[-89.3864609,43.0645008],[-89.3865117,43.0642379],[-89.3867042,43.0635488],[-89.3868192,43.0630558],[-89.3868754,43.0626841],[-89.3868601,43.0622757],[-89.3867809,43.0619151],[-89.3866355,43.0615484],[-89.3863962,43.0611279],[-89.38577,43.060408],[-89.3856348,43.0602076]]},"properties":{"bicycle":"designated","foot":"designated","highway":"cycleway","motorcar":"no","name":"Capital City State Trail","segregated":"no","surface":"asphalt","osm_id":32263511}},{"type":"Feature","geometry":{"type":"LineString","coordinates":[[-89.3862858,43.0652418],[-89.3862371,43.0653491],[-89.38617,43.0654721],[-89.3861221,43.065574],[-89.3860693,43.0657214],[-89.385997,43.065986]]},"properties":{"bicycle":"designated","foot":"designated","highway":"cycleway","lit":"yes","name":"Capital City State Trail","segregated":"yes","surface":"asphalt","osm_id":32263515}},{"type":"Feature","geometry":{"type":"LineString","coordinates":[[-89.3864306,43.0647358],[-89.3864079,43.0648174],[-89.3863699,43.0649599],[-89.3863346,43.0650814],[-89.3862858,43.0652418]]},"properties":{"bicycle":"designated","bridge":"yes","foot":"designated","highway":"cycleway","lit":"yes","name":"Capital City State Trail","segregated":"no","surface":"asphalt","osm_id":32263516}},{"type":"Feature","geometry":{"type":"LineString","coordinates":[[-89.385997,43.065986],[-89.3859494,43.0660897],[-89.3858753,43.0662434],[-89.3858109,43.0663697],[-89.3857385,43.0665112]]},"properties":{"bicycle":"designated","bridge":"yes","foot":"designated","highway":"cycleway","name":"Capital City State Trail","segregated":"no","surface":"asphalt","osm_id":32263520}},{"type":"Feature","geometry":{"type":"LineString","coordinates":[[-89.3823892,43.0697735],[-89.3822645,43.0698298],[-89.3822248,43.0698516],[-89.3818935,43.070116],[-89.3817374,43.0702326],[-89.3817021,43.0702634],[-89.3816702,43.0702899],[-89.3816191,43.0703222],[-89.3815282,43.0703735],[-89.3814364,43.070419],[-89.381348,43.0704656],[-89.3812986,43.0704943],[-89.3812276,43.0705428],[-89.3811483,43.0706039],[-89.3810011,43.0707167],[-89.3809576,43.0707495],[-89.3808875,43.070796],[-89.3808543,43.0708096],[-89.38082,43.0708223],[-89.3807387,43.0708474],[-89.3806328,43.0708749],[-89.3805125,43.0709061],[-89.3804545,43.0709272],[-89.3803987,43.0709544],[-89.3803478,43.0709874],[-89.3802915,43.0710305],[-89.3801374,43.0711552],[-89.3800541,43.0712165],[-89.3799643,43.0712829]]},"properties":{"bicycle":"designated","foot":"designated","highway":"cycleway","incline":"0%","name":"Capital City State Trail","segregated":"yes","osm_id":32263522}},{"type":"Feature","geometry":{"type":"LineString","coordinates":[[-89.3676223,43.0822242],[-89.3674404,43.0823435],[-89.3670797,43.0825801],[-89.3670516,43.0825985],[-89.3669741,43.0826491],[-89.3668924,43.0827065],[-89.3668598,43.0827294],[-89.3660544,43.0832957],[-89.365964,43.0833592],[-89.3659307,43.0833826],[-89.3657755,43.0834917],[-89.3654381,43.0837293],[-89.3653893,43.083763],[-89.3652389,43.0838669],[-89.365179,43.083911],[-89.365099,43.0839665],[-89.3648405,43.084147],[-89.3646125,43.0843063],[-89.3643639,43.0844798],[-89.3641238,43.0846473],[-89.3638428,43.0848434],[-89.363694,43.0849472],[-89.3634772,43.0850985],[-89.363392,43.085158],[-89.3633158,43.0852138],[-89.362744,43.085633],[-89.3619807,43.0861658],[-89.3617276,43.0863425],[-89.3617006,43.0863613],[-89.3616321,43.0864091]]},"properties":{"description":"Bike Blvd shared with cars","highway":"residential","lcn":"yes","lit":"no","maxspeed":"20 mph","name":"East Wilson Street","oneway":"no","surface":"asphalt","osm_id":37972090}},{"type":"Feature","geometry":{"type":"LineString","coordinates":[[-89.3250442,43.0900434],[-89.3249838,43.0899957]]},"properties":{"bicycle":"designated","crossing":"uncontrolled","cycleway":"crossing","foot":"designated","highway":"cycleway","name":"Capital City State Trail","segregated":"no","osm_id":38011975}},{"type":"Feature","geometry":{"type":"LineString","coordinates":[[-89.4252771,43.0158741],[-89.4254427,43.0159296],[-89.4255526,43.0159698],[-89.4256157,43.0160081],[-89.425641,43.01606],[-89.4256295,43.016205],[-89.4256049,43.016386],[-89.4255939,43.0164947],[-89.4255108,43.016699],[-89.425473,43.0170245],[-89.4253631,43.0173037],[-89.4253232,43.0175986],[-89.4253438,43.0177243],[-89.4254009,43.0178006],[-89.4254678,43.0178622],[-89.4255005,43.0178888]]},"properties":{"bicycle":"designated","fee":"yes","foot":"designated","highway":"cycleway","lit":"no","motor_vehicle":"no","name":"Capital City State Trail","segregated":"no","surface":"asphalt","osm_id":38117850}},{"type":"Feature","geometry":{"type":"LineString","coordinates":[[-89.4240148,43.0153728],[-89.4244632,43.0158467]]},"properties":{"bicycle":"designated","bridge":"yes","fee":"yes","foot":"designated","highway":"cycleway","layer":"1","lit":"yes","name":"Capital City State Trail","segregated":"no","surface":"concrete","osm_id":38117855}},{"type":"Feature","geometry":{"type":"LineString","coordinates":[[-89.3472931,43.0308819],[-89.3473663,43.0309221],[-89.347491,43.0309878],[-89.3477504,43.0310948],[-89.3486567,43.0314338],[-89.3489409,43.0315937],[-89.3500644,43.0322619],[-89.3502845,43.0324078],[-89.350483,43.0325254],[-89.3506679,43.0325812],[-89.3510811,43.0327156],[-89.3512857,43.0328021],[-89.3513663,43.0328362],[-89.3516111,43.0329242],[-89.3524437,43.0329715],[-89.3525402,43.0329513],[-89.3525912,43.0329435],[-89.3528385,43.0329315],[-89.3531691,43.0329278],[-89.353247,43.0329269],[-89.3533328,43.0329259],[-89.3535045,43.0329121],[-89.3536976,43.0329053],[-89.3538504,43.0329058],[-89.3539578,43.03292],[-89.354053,43.0329474],[-89.3541468,43.0329842],[-89.3542153,43.0330337],[-89.3542636,43.0330954],[-89.3542871,43.0331409],[-89.3542904,43.0331886],[-89.3542595,43.0332464],[-89.3540973,43.0334248],[-89.3539591,43.0335836],[-89.3537808,43.033816],[-89.3536412,43.0340233],[-89.3535991,43.0341321],[-89.3535602,43.0342328],[-89.3535318,43.0344163],[-89.3535622,43.0346173],[-89.3536177,43.0347652],[-89.3539096,43.0353612],[-89.3541671,43.0360513],[-89.3541831,43.0361581],[-89.3542666,43.0365712],[-89.3543131,43.0376029],[-89.3543112,43.0376848],[-89.3542661,43.0380923],[-89.3542775,43.038144],[-89.3543178,43.038184],[-89.3543885,43.038215],[-89.3544916,43.0382223],[-89.3545656,43.0382276],[-89.3546704,43.0382361],[-89.3552088,43.0382798],[-89.3554482,43.0383202],[-89.3560231,43.0384322],[-89.3565213,43.0385148],[-89.3573136,43.0386526],[-89.3579947,43.0388013],[-89.3586035,43.0390163],[-89.3593573,43.039317],[-89.3594748,43.039349],[-89.3596783,43.0393919],[-89.3597757,43.0394198],[-89.3598691,43.0394645],[-89.3604546,43.0398438],[-89.3612077,43.0403245],[-89.3633673,43.0416762],[-89.3643123,43.0422709],[-89.3644013,43.0423256]]},"properties":{"bicycle":"designated","fee":"yes","foot":"designated","highway":"cycleway","lit":"no","motor_vehicle":"no","name":"Capital City State Trail","segregated":"no","surface":"asphalt","osm_id":43914923}},{"type":"Feature","geometry":{"type":"LineString","coordinates":[[-89.3578408,43.0884644],[-89.3577109,43.0886181],[-89.3576669,43.0886677],[-89.3575241,43.0888267],[-89.3574819,43.088864],[-89.3574309,43.0889108],[-89.3573959,43.0889332],[-89.3573565,43.0889598],[-89.3573045,43.0889855],[-89.3571758,43.0890492],[-89.3566501,43.0893242],[-89.3556899,43.0898309],[-89.355624,43.0898687],[-89.354804,43.0903393],[-89.3547913,43.0903478],[-89.3547494,43.0903821],[-89.3547041,43.0904085],[-89.354665,43.0904319],[-89.3546002,43.0904606]]},"properties":{"bicycle":"designated","foot":"designated","highway":"cycleway","lit":"yes","name":"Capital City State Trail","railway":"abandoned","segregated":"no","surface":"asphalt","osm_id":98799374}},{"type":"Feature","geometry":{"type":"LineString","coordinates":[[-89.3616321,43.0864091],[-89.3616197,43.0864193],[-89.3616145,43.0864271],[-89.3616161,43.0864348],[-89.3616218,43.0864455],[-89.3616226,43.0864538],[-89.3616161,43.0864663],[-89.3616055,43.086477],[-89.3615959,43.0864839],[-89.3615755,43.0864986],[-89.361411,43.0866173],[-89.3605275,43.0872378],[-89.3600226,43.0875504],[-89.3597008,43.0877227],[-89.3591919,43.0879712],[-89.3589892,43.0880707],[-89.3589688,43.0880805]]},"properties":{"bicycle":"designated","foot":"designated","highway":"cycleway","lit":"yes","name":"Capital City State Trail","segregated":"no","smoothness":"good","surface":"asphalt","osm_id":98799434}},{"type":"Feature","geometry":{"type":"LineString","coordinates":[[-89.358652,43.0882428],[-89.3583925,43.0883864]]},"properties":{"bicycle":"designated","bridge":"yes","foot":"designated","highway":"cycleway","layer":"1","lit":"yes","name":"Capital City State Trail","segregated":"no","surface":"asphalt","osm_id":98799442}},{"type":"Feature","geometry":{"type":"LineString","coordinates":[[-89.3583925,43.0883864],[-89.3581303,43.0885205],[-89.3580739,43.0885514]]},"properties":{"bicycle":"designated","foot":"designated","highway":"cycleway","lit":"yes","name":"Capital City State Trail","segregated":"no","surface":"asphalt","osm_id":98799573}},{"type":"Feature","geometry":{"type":"LineString","coordinates":[[-89.4303021,43.0212949],[-89.430756,43.0212889]]},"properties":{"bicycle":"designated","fee":"yes","foot":"designated","highway":"cycleway","layer":"-1","name":"Capital City State Trail","segregated":"no","surface":"concrete","tunnel":"yes","osm_id":99881170}},{"type":"Feature","geometry":{"type":"LineString","coordinates":[[-89.3328297,43.093217],[-89.3325377,43.0930899]]},"properties":{"bicycle":"designated","bridge":"yes","foot":"designated","highway":"cycleway","layer":"1","name":"Capital City State Trail","railway":"abandoned","segregated":"no","surface":"asphalt","osm_id":158460538}},{"type":"Feature","geometry":{"type":"LineString","coordinates":[[-89.3325377,43.0930899],[-89.3291891,43.0916266],[-89.3290628,43.091567],[-89.3287749,43.0914221],[-89.3286837,43.0913813],[-89.3284392,43.0912888],[-89.3283435,43.0912506],[-89.3280653,43.091134],[-89.3280437,43.091125],[-89.3279633,43.0910913]]},"properties":{"bicycle":"designated","foot":"designated","highway":"cycleway","lit":"yes","name":"Capital City State Trail","railway":"abandoned","segregated":"no","surface":"asphalt","width":"8'","osm_id":158460542}},{"type":"Feature","geometry":{"type":"LineString","coordinates":[[-89.3798486,43.0544425],[-89.3796646,43.054303]]},"properties":{"bridge":"yes","cycleway":"shared_lane","highway":"residential","layer":"1","name":"Olin-Turville Court","osm_id":158464545}},{"type":"Feature","geometry":{"type":"LineString","coordinates":[[-89.3790743,43.0538292],[-89.378914,43.0536598],[-89.3785313,43.0532554],[-89.377859,43.052545],[-89.3778187,43.0524954],[-89.377781,43.052449],[-89.377717,43.052348],[-89.3776669,43.0522329],[-89.3775815,43.0519713]]},"properties":{"highway":"residential","lit":"yes","motor_vehicle":"no","name":"Olin-Turville Court","surface":"asphalt","osm_id":158464546}},{"type":"Feature","geometry":{"type":"LineString","coordinates":[[-89.3811557,43.0559743],[-89.3812124,43.0560547],[-89.3812544,43.0561142],[-89.3813198,43.0561488],[-89.3813599,43.0561514],[-89.381469,43.0561328],[-89.3815418,43.0561222],[-89.3816822,43.056125],[-89.3817956,43.0561714],[-89.3818712,43.0562401],[-89.3821495,43.0565316],[-89.3827038,43.0571053],[-89.3830022,43.0574429],[-89.3832387,43.0577168],[-89.3832969,43.0577939],[-89.3833515,43.0578869],[-89.383417,43.0580199],[-89.3834643,43.058089],[-89.3835371,43.0581528],[-89.3836644,43.0582086],[-89.3838209,43.0582937],[-89.3838609,43.0583256],[-89.3845341,43.0590541],[-89.3851527,43.0597214],[-89.3852291,43.0597879],[-89.3853312,43.059859]]},"properties":{"bicycle":"designated","foot":"designated","highway":"cycleway","lit":"yes","name":"Capital City State Trail","segregated":"no","smoothness":"intermediate","surface":"asphalt","osm_id":258040190}},{"type":"Feature","geometry":{"type":"LineString","coordinates":[[-89.3671003,43.0441309],[-89.3671496,43.0440931],[-89.3671895,43.0440736],[-89.3672387,43.0440609],[-89.3672494,43.0440582],[-89.3673492,43.0440525],[-89.3676341,43.0440744],[-89.3682106,43.0441344],[-89.3685476,43.0441846],[-89.3689966,43.0442664],[-89.3699489,43.0444649],[-89.370103,43.0445063],[-89.3702726,43.0445808],[-89.3703884,43.0446417],[-89.3708423,43.0448802],[-89.3712171,43.0450856],[-89.3713514,43.0451677],[-89.371557,43.0452849],[-89.3718959,43.0454903],[-89.3721186,43.0456425],[-89.372227,43.0457265],[-89.3724951,43.0458891],[-89.3727859,43.0460611],[-89.3729537,43.0462163],[-89.3730825,43.0463432],[-89.3732556,43.0464755],[-89.3735459,43.0466366],[-89.3738981,43.0467506],[-89.3740148,43.0468187],[-89.3741124,43.0468825],[-89.3741973,43.0469609],[-89.3742096,43.0470373],[-89.3742466,43.0470871],[-89.3744032,43.0471631],[-89.3746337,43.0473],[-89.3746404,43.0473049],[-89.3748617,43.0474684],[-89.3749481,43.0475263],[-89.375181,43.0476526],[-89.3753226,43.0477333],[-89.3754067,43.0477982],[-89.3754883,43.0478736],[-89.3758988,43.0482877],[-89.3761365,43.0485771],[-89.3763501,43.0488719],[-89.3765476,43.0491488],[-89.3768751,43.049608],[-89.3770486,43.0498669],[-89.37727,43.0502656],[-89.3775285,43.0507951],[-89.3776501,43.0510592],[-89.3776631,43.0511137],[-89.3776744,43.05114],[-89.3776912,43.0511877],[-89.3777102,43.051286],[-89.3777101,43.0512956],[-89.3777093,43.0514722],[-89.3776993,43.0515976],[-89.3776779,43.0516545],[-89.377625,43.051719],[-89.377576,43.0517593],[-89.3774977,43.0517895]]},"properties":{"bicycle":"designated","foot":"designated","highway":"cycleway","lit":"yes","motor_vehicle":"no","name":"Capital City State Trail","segregated":"no","surface":"asphalt","osm_id":293236896}},{"type":"Feature","geometry":{"type":"LineString","coordinates":[[-89.3252867,43.0899128],[-89.3251729,43.0899728],[-89.3250442,43.0900434]]},"properties":{"cycleway":"shared_lane","highway":"residential","name":"Dennett Drive","surface":"asphalt","osm_id":293236897}},{"type":"Feature","geometry":{"type":"LineString","coordinates":[[-89.3811557,43.0559743],[-89.38104,43.055959],[-89.3808604,43.0558959],[-89.380795,43.055832],[-89.380758,43.055785]]},"properties":{"cycleway":"lane","highway":"residential","name":"East Lakeside Street","osm_id":293236898}},{"type":"Feature","geometry":{"type":"LineString","coordinates":[[-89.4226107,43.0161058],[-89.422529,43.0160167],[-89.422506,43.015981],[-89.422481,43.01593],[-89.422458,43.015798],[-89.422488,43.015676],[-89.422615,43.015506],[-89.4226548,43.0154619],[-89.4226952,43.015417],[-89.4234315,43.0146058],[-89.4243708,43.0135715],[-89.424686,43.013224],[-89.4252852,43.0125631],[-89.4259498,43.0118395]]},"properties":{"alt_name":"Capital City State Trail","cycleway":"lane","highway":"residential","maxspeed":"25 mph","name":"Glacier Valley Road","surface":"asphalt","osm_id":293236899}},{"type":"Feature","geometry":{"type":"LineString","coordinates":[[-89.3163176,43.0862434],[-89.3162415,43.0862254],[-89.3162175,43.0862212],[-89.3160767,43.0861914],[-89.3159716,43.0861566],[-89.3159127,43.0861368],[-89.3151582,43.085812],[-89.3136291,43.085133],[-89.3135019,43.0850796],[-89.3133821,43.0850296],[-89.3132729,43.0849854],[-89.3130497,43.084887],[-89.3128615,43.0848191],[-89.312203,43.084517],[-89.3120055,43.0842104],[-89.3118811,43.084193],[-89.3117607,43.084181],[-89.3117083,43.0841505],[-89.3116907,43.0841066],[-89.3116682,43.0840436]]},"properties":{"bicycle":"designated","foot":"designated","highway":"cycleway","name":"Capital City State Trail","segregated":"no","surface":"asphalt","width":"10'","osm_id":293253860}},{"type":"Feature","geometry":{"type":"LineString","coordinates":[[-89.3279633,43.0910913],[-89.3279136,43.0910733],[-89.3278728,43.0910585],[-89.3276722,43.0909858],[-89.3276347,43.0909693],[-89.3275707,43.0909393],[-89.3274569,43.0908759],[-89.3272048,43.0907576],[-89.3271285,43.0907201],[-89.3270482,43.090674],[-89.3269838,43.0906442],[-89.3268074,43.0905635],[-89.32676,43.0905404],[-89.3267126,43.0905126],[-89.3266771,43.0904943],[-89.3266218,43.090477],[-89.3265324,43.0904501],[-89.3264679,43.090427],[-89.3259613,43.0902141],[-89.3256008,43.0900513],[-89.3253899,43.0899572]]},"properties":{"bicycle":"designated","foot":"designated","highway":"cycleway","lit":"yes","name":"Capital City State Trail","railway":"abandoned","segregated":"no","width":"8'","osm_id":293253861}},{"type":"Feature","geometry":{"type":"LineString","coordinates":[[-89.4611961,43.0238414],[-89.4611933,43.0238368],[-89.461189,43.0238325],[-89.4611836,43.0238289],[-89.4611772,43.0238262],[-89.4611703,43.0238246],[-89.461163,43.0238241],[-89.4611557,43.0238248],[-89.4611488,43.0238265],[-89.4611445,43.0238283],[-89.4611406,43.0238305],[-89.4611372,43.023833],[-89.4611343,43.0238359],[-89.461132,43.0238391],[-89.4611304,43.0238425],[-89.4611294,43.023846],[-89.4611291,43.0238496],[-89.4611296,43.0238532],[-89.461131,43.0238573],[-89.4611333,43.0238612],[-89.4611365,43.0238647],[-89.4611404,43.0238678],[-89.461145,43.0238704],[-89.4611501,43.0238723],[-89.4611556,43.0238736],[-89.4611613,43.0238743],[-89.4611671,43.0238742],[-89.4611728,43.0238734],[-89.4611792,43.0238715],[-89.461185,43.0238687],[-89.4611899,43.0238652],[-89.4611937,43.023861],[-89.4611963,43.0238563],[-89.4611976,43.0238514],[-89.4611975,43.0238463],[-89.4611961,43.0238414]]},"properties":{"bicycle":"designated","foot":"designated","highway":"cycleway","junction":"roundabout","lit":"no","motor_vehicle":"no","name":"The Velo UnderRound","official_name":"Dunn's Marsh Roundabout","oneway":"yes","segregated":"no","short_name":"Velo UnderRound","surface":"asphalt","width":"10'","osm_id":375240260}},{"type":"Feature","geometry":{"type":"LineString","coordinates":[[-89.4244632,43.0158467],[-89.4245348,43.0158639],[-89.4246206,43.0158791],[-89.424724,43.0158825],[-89.4251349,43.0158889],[-89.4252402,43.0158876],[-89.4252771,43.0158741]]},"properties":{"bicycle":"designated","fee":"yes","foot":"designated","highway":"cycleway","lit":"yes","motor_vehicle":"no","name":"Capital City State Trail","segregated":"no","surface":"asphalt","osm_id":491212827}},{"type":"Feature","geometry":{"type":"LineString","coordinates":[[-89.3471558,43.0308261],[-89.3472931,43.0308819]]},"properties":{"bicycle":"designated","bridge":"yes","fee":"yes","foot":"designated","highway":"cycleway","layer":"1","lit":"no","motor_vehicle":"no","name":"Capital City State Trail","segregated":"no","surface":"concrete","osm_id":491212828}},{"type":"Feature","geometry":{"type":"LineString","coordinates":[[-89.3844411,43.0681818],[-89.3837905,43.0688637],[-89.3836679,43.0689819],[-89.3832129,43.0692868],[-89.3830724,43.0693795],[-89.3826552,43.0696417],[-89.3825302,43.0697096],[-89.3823892,43.0697735]]},"properties":{"bicycle":"designated","foot":"designated","highway":"cycleway","lit":"no","name":"Capital City State Trail","oneway":"no","segregated":"yes","surface":"asphalt","osm_id":491212832}},{"type":"Feature","geometry":{"type":"LineString","coordinates":[[-89.3777355,43.0733168],[-89.3777283,43.073364],[-89.3777252,43.0733975],[-89.3777338,43.0735577],[-89.3777295,43.0735959],[-89.3776941,43.0736588],[-89.3774915,43.0738501],[-89.3771326,43.0741736],[-89.3769475,43.0743525],[-89.3768301,43.0744672],[-89.3764835,43.0747869],[-89.3759509,43.0752285],[-89.3756493,43.0754676],[-89.3755711,43.0755472]]},"properties":{"bicycle":"designated","foot":"designated","highway":"cycleway","name":"Capital City State Trail","oneway":"no","segregated":"no","surface":"asphalt","osm_id":491212833}},{"type":"Feature","geometry":{"type":"LineString","coordinates":[[-89.3797305,43.0714545],[-89.3797591,43.0714454],[-89.3797846,43.071432],[-89.3798069,43.071417],[-89.3798259,43.0714007],[-89.3798377,43.0713811],[-89.3798439,43.0713651]]},"properties":{"foot":"no","highway":"cycleway","incline":"0%","layer":"-1","lit":"yes","name":"Capital City State Trail","oneway":"yes","surface":"paved","surface:note":"some kind of resin coating","tunnel":"yes","osm_id":533484346}},{"type":"Feature","geometry":{"type":"LineString","coordinates":[[-89.3796246,43.071558],[-89.3795358,43.0716183],[-89.3793931,43.0717303],[-89.3793044,43.0718013],[-89.3792487,43.0718588],[-89.3790616,43.0720787],[-89.378996,43.0721523],[-89.3787778,43.0724077],[-89.3787208,43.072469],[-89.3786847,43.0725039],[-89.3786396,43.0725421],[-89.378374,43.0727535],[-89.3779797,43.0730514],[-89.3778805,43.0731258],[-89.3778215,43.0731728],[-89.3777893,43.0732081],[-89.3777638,43.073258],[-89.3777355,43.0733168]]},"properties":{"bicycle":"designated","foot":"designated","highway":"cycleway","incline":"0%","name":"Capital City State Trail","segregated":"yes","osm_id":533484347}},{"type":"Feature","geometry":{"type":"LineString","coordinates":[[-89.3798439,43.0713651],[-89.3798156,43.0713844],[-89.3797896,43.0714051],[-89.3797586,43.0714293],[-89.3797305,43.0714545]]},"properties":{"bicycle":"designated","foot":"designated","highway":"cycleway","incline":"0%","layer":"-1","lit":"yes","name":"Capital City State Trail","oneway":"yes","oneway:foot":"no","segregated":"yes","tunnel":"yes","osm_id":533484348}},{"type":"Feature","geometry":{"type":"LineString","coordinates":[[-89.4611728,43.0238734],[-89.461479,43.023925],[-89.4615742,43.0239232],[-89.4617331,43.0238768],[-89.4619908,43.023786],[-89.462176,43.0237271],[-89.4625211,43.0236427],[-89.4627729,43.0235114],[-89.4629582,43.0234323],[-89.4631334,43.023376],[-89.4633009,43.0233355],[-89.463433,43.0233173],[-89.4635512,43.0233229],[-89.4637943,43.0233716],[-89.4639521,43.0234141],[-89.4640053,43.0234611],[-89.4642236,43.0237773],[-89.4643336,43.0238551],[-89.4646333,43.0238642],[-89.4647256,43.0239358],[-89.4650307,43.0243456],[-89.465163,43.0244573],[-89.4653815,43.0245684],[-89.465506,43.0246633],[-89.4657089,43.0248728],[-89.4658153,43.0249904],[-89.4659049,43.025031],[-89.4660707,43.025067],[-89.4662367,43.0251218],[-89.4663392,43.0251845],[-89.4664193,43.0252623],[-89.4665426,43.0253169],[-89.4666387,43.0253242],[-89.4666897,43.0253114],[-89.466734,43.0252889]]},"properties":{"bicycle":"designated","fee":"yes","foot":"designated","highway":"cycleway","lit":"no","motor_vehicle":"no","name":"Capital City State Trail","segregated":"no","surface":"asphalt","width":"10'","osm_id":533484351}},{"type":"Feature","geometry":{"type":"LineString","coordinates":[[-89.3644013,43.0423256],[-89.3644853,43.04238],[-89.3652855,43.0428688],[-89.3654229,43.0429566],[-89.3655351,43.0430348],[-89.365583,43.0430985],[-89.3656546,43.0431984],[-89.3656842,43.0432355],[-89.3657578,43.04328],[-89.3658413,43.0433311],[-89.3666245,43.0438097],[-89.3669708,43.0440435],[-89.3671003,43.0441309]]},"properties":{"bicycle":"designated","foot":"designated","highway":"cycleway","motor_vehicle":"no","name":"Capital City State Trail","segregated":"no","surface":"asphalt","osm_id":533484356}},{"type":"Feature","geometry":{"type":"LineString","coordinates":[[-89.3722846,43.078968],[-89.3706465,43.0800932],[-89.3706008,43.0801252],[-89.3705553,43.0801571],[-89.3705134,43.0801876],[-89.3704812,43.0802111],[-89.3700762,43.0805067],[-89.3688704,43.0813596],[-89.3687914,43.0814101],[-89.3687038,43.0814688]]},"properties":{"bicycle":"designated","foot":"designated","highway":"cycleway","lit":"yes","name":"Capital City State Trail","segregated":"no","surface":"asphalt","osm_id":556824440}},{"type":"Feature","geometry":{"type":"LineString","coordinates":[[-89.3754918,43.076017],[-89.3755038,43.0760572]]},"properties":{"bicycle":"designated","foot":"designated","highway":"cycleway","name":"Capital City State Trail","osm_id":556824441}},{"type":"Feature","geometry":{"type":"LineString","coordinates":[[-89.4255005,43.0178888],[-89.4256803,43.0180393]]},"properties":{"bicycle":"designated","bridge":"yes","fee":"yes","foot":"designated","highway":"cycleway","layer":"1","lit":"no","name":"Capital City State Trail","segregated":"no","osm_id":562112292}},{"type":"Feature","geometry":{"type":"LineString","coordinates":[[-89.4256803,43.0180393],[-89.4257201,43.0180777],[-89.4257303,43.0181352],[-89.4257019,43.0182448],[-89.4256937,43.0183765],[-89.4257369,43.0184545],[-89.4258034,43.018515]]},"properties":{"bicycle":"designated","fee":"yes","foot":"designated","highway":"cycleway","lit":"no","motor_vehicle":"no","name":"Capital City State Trail","segregated":"no","surface":"asphalt","osm_id":562112293}},{"type":"Feature","geometry":{"type":"LineString","coordinates":[[-89.4259027,43.0186072],[-89.425975,43.0187153],[-89.4260472,43.0188796],[-89.4260809,43.0191181],[-89.4261162,43.0191688]]},"properties":{"bicycle":"designated","fee":"yes","foot":"designated","highway":"cycleway","lit":"no","motor_vehicle":"no","name":"Capital City State Trail","segregated":"no","surface":"asphalt","osm_id":562112294}},{"type":"Feature","geometry":{"type":"LineString","coordinates":[[-89.4258034,43.018515],[-89.4259027,43.0186072]]},"properties":{"bicycle":"designated","bridge":"yes","fee":"yes","foot":"designated","highway":"cycleway","layer":"1","lit":"no","name":"Capital City State Trail","segregated":"no","osm_id":562112295}},{"type":"Feature","geometry":{"type":"LineString","coordinates":[[-89.4261162,43.0191688],[-89.426206,43.0192679]]},"properties":{"bicycle":"designated","bridge":"yes","fee":"yes","foot":"designated","highway":"cycleway","layer":"1","lit":"no","name":"Capital City State Trail","segregated":"no","osm_id":562333829}},{"type":"Feature","geometry":{"type":"LineString","coordinates":[[-89.426206,43.0192679],[-89.4262564,43.0193381],[-89.4263426,43.0196345],[-89.4263738,43.0197997],[-89.4263696,43.0198631],[-89.4263385,43.0199175],[-89.4261506,43.0202199],[-89.4260721,43.0203167],[-89.426003,43.0204155],[-89.426006,43.0204814],[-89.4260726,43.0205674],[-89.4262248,43.0207319],[-89.4263514,43.0208228],[-89.4264444,43.0208328],[-89.4265291,43.0208168],[-89.4266612,43.0207682],[-89.4267732,43.0207106],[-89.4269459,43.0206341],[-89.4270819,43.0205945],[-89.4273396,43.0205785],[-89.4275772,43.0205566],[-89.4277039,43.0205491],[-89.4278306,43.0205613],[-89.4279494,43.0206102],[-89.428022,43.0206708],[-89.4281697,43.0207941],[-89.428236,43.0208366],[-89.4283023,43.0208958],[-89.4284292,43.02109],[-89.4284917,43.0211557],[-89.4285566,43.0212001],[-89.4286139,43.0212203],[-89.428678,43.0212355],[-89.428901,43.0212604],[-89.4290207,43.0212779],[-89.42945,43.021364]]},"properties":{"bicycle":"designated","fee":"yes","foot":"designated","highway":"cycleway","lit":"no","motor_vehicle":"no","name":"Capital City State Trail","segregated":"no","surface":"asphalt","osm_id":562333830}},{"type":"Feature","geometry":{"type":"LineString","coordinates":[[-89.42945,43.021364],[-89.429598,43.0213538]]},"properties":{"bicycle":"designated","bridge":"yes","fee":"yes","foot":"designated","highway":"cycleway","layer":"1","lit":"no","motor_vehicle":"no","name":"Capital City State Trail","segregated":"no","surface":"asphalt","osm_id":562333832}},{"type":"Feature","geometry":{"type":"LineString","coordinates":[[-89.429598,43.0213538],[-89.429976,43.0212957]]},"properties":{"bicycle":"designated","fee":"yes","foot":"designated","highway":"cycleway","lit":"no","motor_vehicle":"no","name":"Capital City State Trail","segregated":"no","surface":"asphalt","osm_id":562333833}},{"type":"Feature","geometry":{"type":"LineString","coordinates":[[-89.4242448,43.0150983],[-89.4241945,43.0150716],[-89.4241431,43.0150612],[-89.4240839,43.0150607],[-89.4240307,43.0150648],[-89.4239639,43.0150965],[-89.4239121,43.0151313],[-89.4238935,43.0151898],[-89.4238959,43.0152383],[-89.4239319,43.0152962],[-89.4239792,43.0153446],[-89.4240148,43.0153728]]},"properties":{"bicycle":"designated","embankment":"yes","fee":"yes","foot":"designated","highway":"cycleway","lit":"yes","name":"Capital City State Trail","oneway":"no","segregated":"no","surface":"asphalt","width":"10'","osm_id":562559224}},{"type":"Feature","geometry":{"type":"LineString","coordinates":[[-89.3580739,43.0885514],[-89.3579614,43.0885074],[-89.3578408,43.0884644]]},"properties":{"bicycle":"designated","crossing":"traffic_signals","cycleway":"crossing","highway":"cycleway","name":"Capital City State Trail","segregated":"no","surface":"concrete","osm_id":565574029}},{"type":"Feature","geometry":{"type":"LineString","coordinates":[[-89.3687038,43.0814688],[-89.3676948,43.0821711],[-89.3676223,43.0822242]]},"properties":{"bicycle":"designated","foot":"designated","highway":"cycleway","lit":"yes","name":"Capital City State Trail","segregated":"no","surface":"asphalt","osm_id":568833053}},{"type":"Feature","geometry":{"type":"LineString","coordinates":[[-89.343684,43.0962296],[-89.3436448,43.0962593],[-89.3435756,43.0962923],[-89.3435136,43.0963183],[-89.3431205,43.0965369],[-89.3422844,43.0970019],[-89.3421267,43.0970794],[-89.341949,43.0971131],[-89.3417174,43.0971209],[-89.3416639,43.0971048],[-89.3415507,43.0970543],[-89.3405171,43.0966079],[-89.340323,43.0965237],[-89.3394171,43.0961195],[-89.3392277,43.0960195],[-89.3392184,43.0960164],[-89.3391898,43.0960067],[-89.3384406,43.0956788],[-89.3384285,43.0956735],[-89.3383543,43.0956411],[-89.3383038,43.0956193],[-89.3382493,43.0955958],[-89.3366283,43.0948962],[-89.3365201,43.0948137],[-89.3364285,43.0947689],[-89.3362917,43.0946907],[-89.3348745,43.0941126],[-89.3328297,43.093217]]},"properties":{"bicycle":"designated","foot":"designated","highway":"cycleway","lit":"yes","name":"Capital City State Trail","railway":"abandoned","segregated":"no","surface":"asphalt","width":"8'","osm_id":686443355}},{"type":"Feature","geometry":{"type":"LineString","coordinates":[[-89.3249838,43.0899957],[-89.3243823,43.0897521],[-89.323049,43.0891628],[-89.3213721,43.0884173],[-89.3192629,43.0874902],[-89.3165496,43.0863027],[-89.3164919,43.0862805],[-89.3164244,43.0862671],[-89.3163176,43.0862434]]},"properties":{"bicycle":"designated","foot":"designated","highway":"cycleway","name":"Capital City State Trail","segregated":"no","surface":"asphalt","width":"10'","osm_id":689718903}},{"type":"Feature","geometry":{"type":"LineString","coordinates":[[-89.4250642,43.0112103],[-89.4253669,43.0114072],[-89.4258947,43.0118029],[-89.4259498,43.0118395]]},"properties":{"bicycle":"designated","fee":"yes","foot":"designated","highway":"path","motor_vehicle":"no","name":"Capital City State Trail","oneway":"no","segregated":"no","surface":"asphalt","width":"10'","osm_id":718193112}},{"type":"Feature","geometry":{"type":"LineString","coordinates":[[-89.3755329,43.076149],[-89.3755614,43.0762074],[-89.3755884,43.0762626]]},"properties":{"bicycle":"designated","crossing":"traffic_signals","cycleway":"crossing","highway":"cycleway","name":"Capital City State Trail","segregated":"no","osm_id":791587524}},{"type":"Feature","geometry":{"type":"LineString","coordinates":[[-89.3116682,43.0840436],[-89.3115942,43.0838673]]},"properties":{"bicycle":"designated","foot":"designated","highway":"cycleway","name":"Capital City State Trail","segregated":"no","surface":"asphalt","osm_id":791781620}},{"type":"Feature","geometry":{"type":"LineString","coordinates":[[-89.4227002,43.0162007],[-89.4228118,43.016149]]},"properties":{"bicycle":"designated","crossing":"uncontrolled","footway":"crossing","highway":"footway","lit":"yes","name":"Capital City State Trail","oneway":"no","segregated":"no","surface":"asphalt","width":"10'","osm_id":882655313}},{"type":"Feature","geometry":{"type":"LineString","coordinates":[[-89.4535323,43.0214219],[-89.4538742,43.0213989],[-89.454216,43.0213614],[-89.4545681,43.0212842],[-89.4547457,43.0212528],[-89.4548611,43.0212354],[-89.4552575,43.0212154],[-89.45582,43.021253],[-89.4559885,43.0212726],[-89.456112,43.021287],[-89.4566597,43.0213769],[-89.4575278,43.0215848],[-89.4577672,43.0216531],[-89.4579421,43.021708],[-89.4580894,43.0217419],[-89.4584608,43.0218174],[-89.458851,43.0218688],[-89.459032,43.0219221],[-89.4591138,43.0219715],[-89.4591908,43.0220667],[-89.4592888,43.0222688],[-89.4594213,43.0225333],[-89.459556,43.0227755],[-89.4597578,43.0230222],[-89.460094,43.0232812],[-89.4606549,43.0235447],[-89.4607762,43.0236212],[-89.4609593,43.0237564],[-89.461007,43.0237758],[-89.4610554,43.0237924],[-89.4611488,43.0238265]]},"properties":{"bicycle":"designated","fee":"yes","foot":"designated","highway":"cycleway","lit":"no","motor_vehicle":"no","name":"Capital City State Trail","segregated":"no","surface":"asphalt","width":"10'","osm_id":882663064}},{"type":"Feature","geometry":{"type":"LineString","coordinates":[[-89.449368,43.0225746],[-89.4494406,43.0225796],[-89.4495152,43.0225853]]},"properties":{"bicycle":"designated","crossing":"uncontrolled","cycleway":"crossing","fee":"yes","foot":"designated","highway":"cycleway","lit":"yes","name":"Capital City State Trail","segregated":"no","surface":"asphalt","width":"10'","osm_id":885767695}},{"type":"Feature","geometry":{"type":"LineString","coordinates":[[-89.4488869,43.0225381],[-89.4490589,43.0225344],[-89.4492123,43.0225539]]},"properties":{"bicycle":"designated","fee":"yes","foot":"designated","highway":"cycleway","motor_vehicle":"no","name":"Capital City State Trail","oneway":"no","segregated":"no","surface":"asphalt","width":"10'","osm_id":885767696}},{"type":"Feature","geometry":{"type":"LineString","coordinates":[[-89.4492123,43.0225539],[-89.449368,43.0225746]]},"properties":{"bicycle":"designated","fee":"yes","foot":"designated","highway":"cycleway","motor_vehicle":"no","name":"Capital City State Trail","oneway":"no","segregated":"no","surface":"asphalt","width":"10'","osm_id":889420643}},{"type":"Feature","geometry":{"type":"LineString","coordinates":[[-89.4495152,43.0225853],[-89.4495995,43.0225813],[-89.4496576,43.0225705],[-89.4497022,43.0225455],[-89.4498,43.022448],[-89.449957,43.022349],[-89.450154,43.02224],[-89.4504041,43.0221103],[-89.4506799,43.02199],[-89.4508062,43.0219447],[-89.4509369,43.0219057],[-89.451194,43.021835],[-89.451843,43.021664],[-89.4520796,43.0216055],[-89.452314,43.021558],[-89.4525814,43.0215126],[-89.452893,43.021472],[-89.4535323,43.0214219]]},"properties":{"bicycle":"designated","fee":"yes","foot":"designated","highway":"cycleway","lit":"no","motor_vehicle":"no","name":"Capital City State Trail","oneway":"no","segregated":"no","surface":"asphalt","width":"10'","osm_id":889420644}},{"type":"Feature","geometry":{"type":"LineString","coordinates":[[-89.4227002,43.0162007],[-89.4226107,43.0161058]]},"properties":{"alt_name":"Capital City State Trail","cycleway":"lane","highway":"residential","lit":"yes","maxspeed":"25 mph","name":"Glacier Valley Road","surface":"asphalt","osm_id":912228837}},{"type":"Feature","geometry":{"type":"LineString","coordinates":[[-89.429976,43.0212957],[-89.4303021,43.0212949]]},"properties":{"bicycle":"designated","fee":"yes","foot":"designated","highway":"cycleway","lit":"no","motor_vehicle":"no","name":"Capital City State Trail","segregated":"no","surface":"asphalt","osm_id":934345120}},{"type":"Feature","geometry":{"type":"LineString","coordinates":[[-89.430756,43.0212889],[-89.4308701,43.0212853],[-89.4310303,43.0212412],[-89.4311479,43.0212234],[-89.4312431,43.0212106],[-89.4312774,43.021206],[-89.4313884,43.0212088],[-89.4314638,43.0212349],[-89.4317884,43.0213966],[-89.4319462,43.0214839],[-89.4326396,43.0218678]]},"properties":{"bicycle":"designated","fee":"yes","foot":"designated","highway":"cycleway","motor_vehicle":"no","name":"Capital City State Trail","oneway":"no","segregated":"no","surface":"asphalt","width":"10'","osm_id":934345128}},{"type":"Feature","geometry":{"type":"LineString","coordinates":[[-89.4228728,43.0161155],[-89.4238149,43.015654],[-89.4238438,43.0155651],[-89.4239423,43.0154539],[-89.4240009,43.015407],[-89.4241204,43.0153538],[-89.4241997,43.0153161],[-89.4242656,43.0152699],[-89.4242865,43.01523],[-89.4242846,43.015185],[-89.4242764,43.0151493],[-89.42426,43.0151193],[-89.4242448,43.0150983]]},"properties":{"bicycle":"designated","fee":"yes","foot":"designated","highway":"cycleway","lit":"yes","name":"Capital City State Trail","oneway":"no","segregated":"no","surface":"asphalt","width":"10'","osm_id":937926801}},{"type":"Feature","geometry":{"type":"LineString","coordinates":[[-89.4228118,43.016149],[-89.4228728,43.0161155]]},"properties":{"bicycle":"designated","fee":"yes","foot":"designated","highway":"cycleway","lit":"yes","name":"Capital City State Trail","oneway":"no","segregated":"no","surface":"concrete","width":"10'","osm_id":1057793393}},{"type":"Feature","geometry":{"type":"LineString","coordinates":[[-89.3795952,43.0233743],[-89.3796497,43.0234207],[-89.3796756,43.0234516],[-89.3797735,43.0235721],[-89.3798813,43.0237107],[-89.379946,43.023799],[-89.3799657,43.0238269],[-89.3799951,43.0238578]]},"properties":{"bicycle":"designated","fee":"yes","foot":"designated","highway":"cycleway","lit":"no","motor_vehicle":"no","name":"Capital City State Trail","oneway":"no","segregated":"no","surface":"asphalt","width":"10'","osm_id":1085201323}},{"type":"Feature","geometry":{"type":"LineString","coordinates":[[-89.3803214,43.0238273],[-89.3802185,43.023865],[-89.3801351,43.0238955],[-89.3801013,43.0239078]]},"properties":{"bicycle":"designated","crossing":"traffic_signals","footway":"crossing","highway":"footway","name":"Capital City State Trail","segregated":"no","surface":"asphalt","osm_id":1085201324}},{"type":"Feature","geometry":{"type":"LineString","coordinates":[[-89.3795952,43.0233743],[-89.3795544,43.0233585],[-89.379512,43.0233481],[-89.3794249,43.0233284],[-89.3793746,43.0233226],[-89.3792745,43.0233055],[-89.3791761,43.0232846],[-89.3790552,43.0232594],[-89.3789407,43.0232464],[-89.3788155,43.0232299],[-89.378531,43.0232311],[-89.3781232,43.0232109],[-89.3773866,43.0231709],[-89.3769613,43.0231502],[-89.3768053,43.0231491],[-89.3766675,43.0231652],[-89.3765005,43.0231947],[-89.3760971,43.0232881],[-89.3759474,43.0233316],[-89.375805,43.023379],[-89.3755717,43.0234935],[-89.3750298,43.0237425],[-89.3748993,43.0238028],[-89.374775,43.0238311],[-89.3744955,43.0238735],[-89.3742042,43.0239088],[-89.373619,43.0239492],[-89.3733931,43.023955],[-89.3731656,43.0239261],[-89.3725472,43.0238143],[-89.372296,43.0237609],[-89.3721145,43.0236886],[-89.372036,43.0235973],[-89.3719377,43.0234554],[-89.3718689,43.0233525],[-89.3717133,43.0231922],[-89.3715307,43.0230875],[-89.3712899,43.0229831],[-89.3711049,43.0229356],[-89.3709049,43.0229057],[-89.3689546,43.0228001],[-89.3672691,43.022726],[-89.3656898,43.0226444],[-89.3654485,43.0226385],[-89.3652338,43.0226233],[-89.3651633,43.0226186],[-89.3650992,43.0226057],[-89.3650559,43.022594],[-89.3650188,43.0225766],[-89.3649686,43.0225469],[-89.3648973,43.0224844],[-89.3647867,43.0223843],[-89.3647258,43.022328],[-89.3646505,43.0222706],[-89.3645976,43.0222331],[-89.3645079,43.0221863],[-89.3644101,43.0221558],[-89.3643236,43.0221324],[-89.3642371,43.0221172],[-89.3639706,43.0220937],[-89.3638148,43.0221088],[-89.3635332,43.022199],[-89.3633419,43.0222245],[-89.362601,43.0222314],[-89.3623596,43.0221989],[-89.3616154,43.0220687],[-89.3614652,43.0220637],[-89.3612372,43.0221363],[-89.36102,43.0222363],[-89.3607374,43.0224221],[-89.3604177,43.0228813],[-89.3603092,43.0229971],[-89.3602035,43.023069],[-89.3600892,43.0231128],[-89.3599224,43.0231279],[-89.3595706,43.0231111],[-89.3585058,43.0229958],[-89.357523,43.0229111],[-89.3558551,43.0228744],[-89.3555351,43.0228673],[-89.3553506,43.0228836],[-89.3551926,43.0229369],[-89.3542829,43.0234727],[-89.3539038,43.023727],[-89.3535524,43.0240028],[-89.3534414,43.0240731],[-89.3533193,43.024108],[-89.353215,43.0241226],[-89.3531146,43.0241242],[-89.3527742,43.0240895],[-89.3527063,43.0240886],[-89.3526384,43.0241036],[-89.3525483,43.0241407],[-89.3523087,43.0243689],[-89.3519631,43.0246106],[-89.3517818,43.0247934],[-89.3516425,43.0249095],[-89.3511871,43.0250924],[-89.3508484,43.025319],[-89.350662,43.0253885],[-89.3503931,43.0254754],[-89.350186,43.0255781],[-89.3500359,43.0256263],[-89.3496085,43.025649],[-89.3494693,43.0256672],[-89.3493458,43.0256919],[-89.3491148,43.0257617],[-89.3489761,43.0258407],[-89.3488231,43.0259836],[-89.3486842,43.0261475],[-89.3486426,43.0263131],[-89.3486338,43.0264907],[-89.3486693,43.0266654],[-89.3487301,43.0268335],[-89.3487711,43.0269326],[-89.3487861,43.0270347],[-89.3487688,43.0271034],[-89.348726,43.027183],[-89.3486689,43.0272546],[-89.3485833,43.0273144],[-89.3484849,43.0273592],[-89.3483629,43.0273827],[-89.3482398,43.0273714],[-89.3481273,43.0273442],[-89.3475397,43.0271849],[-89.3472475,43.0271286],[-89.3469535,43.02708],[-89.3467438,43.0270622],[-89.3465955,43.0270637],[-89.346456,43.0270754],[-89.3462578,43.0271086],[-89.345832,43.027212],[-89.3456795,43.0272499],[-89.3455831,43.0272622],[-89.3454887,43.0272622],[-89.3453825,43.0272579],[-89.3453576,43.0272571]]},"properties":{"bicycle":"designated","fee":"yes","foot":"designated","highway":"cycleway","lit":"no","motor_vehicle":"no","name":"Capital City State Trail","oneway":"no","segregated":"no","surface":"asphalt","width":"10'","osm_id":1085201325}},{"type":"Feature","geometry":{"type":"LineString","coordinates":[[-89.3803214,43.0238273],[-89.3802973,43.0237712],[-89.3803019,43.0237332],[-89.3803101,43.023712],[-89.3803115,43.0237041],[-89.380359,43.0236901]]},"properties":{"bicycle":"designated","crossing":"traffic_signals","footway":"crossing","highway":"footway","name":"Capital City State Trail","segregated":"no","surface":"asphalt","osm_id":1085201326}},{"type":"Feature","geometry":{"type":"LineString","coordinates":[[-89.3801013,43.0239078],[-89.3800778,43.0239212],[-89.3800462,43.0239298]]},"properties":{"bicycle":"designated","fee":"yes","foot":"designated","highway":"cycleway","motor_vehicle":"no","name":"Capital City State Trail","oneway":"no","segregated":"no","surface":"concrete","width":"10'","osm_id":1089371910}},{"type":"Feature","geometry":{"type":"LineString","coordinates":[[-89.3452792,43.0272098],[-89.3452553,43.0272095],[-89.3451067,43.0272097],[-89.3449764,43.02724],[-89.3449104,43.0272732],[-89.3448684,43.0273297],[-89.3448436,43.0274894],[-89.3448356,43.0277049],[-89.3448383,43.027927],[-89.344845,43.028172],[-89.344857,43.0282668],[-89.3449644,43.0285559],[-89.3449831,43.0287159],[-89.3450072,43.0290923],[-89.3450076,43.0291317],[-89.3450099,43.0293746],[-89.3449981,43.0295057],[-89.3449335,43.0297805],[-89.3448705,43.0300266],[-89.3448766,43.0300731],[-89.344908,43.0301295],[-89.3449947,43.0301881],[-89.3451695,43.0302932],[-89.3453842,43.0303996],[-89.3456899,43.030501],[-89.3460217,43.0306181],[-89.3462196,43.0306549],[-89.3464871,43.0306813],[-89.3469827,43.0307736],[-89.3470733,43.0307971],[-89.3471558,43.0308261]]},"properties":{"bicycle":"designated","fee":"yes","foot":"designated","highway":"cycleway","lit":"no","motor_vehicle":"no","name":"Capital City State Trail","oneway":"no","segregated":"no","surface":"asphalt","width":"10'","osm_id":1093219198}},{"type":"Feature","geometry":{"type":"LineString","coordinates":[[-89.3453576,43.0272571],[-89.3453278,43.0272103],[-89.3452792,43.0272098]]},"properties":{"bicycle":"designated","cycleway":"crossing","fee":"yes","foot":"designated","highway":"cycleway","lit":"no","name":"Capital City State Trail","oneway":"no","segregated":"no","surface":"asphalt","width":"10'","osm_id":1093219199}},{"type":"Feature","geometry":{"type":"LineString","coordinates":[[-89.3755711,43.0755472],[-89.3753874,43.0757232],[-89.3753589,43.0757712],[-89.3753334,43.0758183],[-89.3753259,43.0758325],[-89.3753199,43.0758514],[-89.3753193,43.0758708],[-89.3753227,43.0759001],[-89.37533,43.0759518],[-89.3753272,43.0759806]]},"properties":{"highway":"cycleway","name":"Capital City State Trail","oneway":"no","surface":"asphalt","osm_id":1177120133}},{"type":"Feature","geometry":{"type":"LineString","coordinates":[[-89.3509305,43.0924855],[-89.3507939,43.0925057],[-89.350663,43.0925456],[-89.3504244,43.0926506],[-89.350088,43.0928331],[-89.3496293,43.0930297],[-89.3495918,43.0930508],[-89.3495833,43.0930637]]},"properties":{"bicycle":"designated","foot":"designated","highway":"cycleway","lit":"yes","name":"Capital City State Trail","railway":"abandoned","segregated":"no","surface":"asphalt","osm_id":1223991922}},{"type":"Feature","geometry":{"type":"LineString","coordinates":[[-89.3495833,43.0930637],[-89.3495519,43.0931113],[-89.3495239,43.0931539],[-89.3494908,43.0932099],[-89.3494536,43.0932893],[-89.3494467,43.0932975]]},"properties":{"bicycle":"designated","colour":"green","crossing":"traffic_signals","cycleway":"crossing","foot":"no","highway":"cycleway","lit":"yes","name":"Capital City State Trail","railway":"abandoned","segregated":"no","surface":"asphalt","width":"10'0\"","osm_id":1223991925}},{"type":"Feature","geometry":{"type":"LineString","coordinates":[[-89.3753731,43.0766135],[-89.3753694,43.0766616],[-89.3753625,43.076704],[-89.375348,43.0767404],[-89.3753277,43.0767761],[-89.3752983,43.0768082],[-89.3751952,43.0769041],[-89.3750313,43.0770579],[-89.374946,43.0771341],[-89.374876,43.077189],[-89.3746316,43.0773452],[-89.3744422,43.0774736],[-89.3742421,43.0776127]]},"properties":{"bicycle":"designated","foot":"designated","highway":"cycleway","name":"Capital City State Trail","segregated":"no","surface":"asphalt","osm_id":1262645884}},{"type":"Feature","geometry":{"type":"LineString","coordinates":[[-89.3742054,43.0776392],[-89.3741643,43.0776679],[-89.3741347,43.0776871]]},"properties":{"bicycle":"designated","crossing":"uncontrolled","cycleway":"crossing","foot":"designated","highway":"cycleway","name":"Capital City State Trail","segregated":"no","surface":"asphalt","osm_id":1262645885}},{"type":"Feature","geometry":{"type":"LineString","coordinates":[[-89.3950702,43.0190833],[-89.395078,43.0190639],[-89.3950854,43.0190568],[-89.3951039,43.019053]]},"properties":{"bicycle":"designated","crossing":"traffic_signals","cycleway":"crossing","fee":"yes","foot":"designated","highway":"cycleway","lit":"yes","motor_vehicle":"no","name":"Capital City State Trail","oneway":"no","segregated":"no","surface":"concrete","width":"10'","osm_id":1264169547}},{"type":"Feature","geometry":{"type":"LineString","coordinates":[[-89.380359,43.0236901],[-89.3803794,43.0236882],[-89.3804221,43.0236892],[-89.3804604,43.0236878],[-89.38058,43.0236658],[-89.380698,43.0236227],[-89.381044,43.0234824],[-89.3815515,43.0232332],[-89.3818291,43.0231085],[-89.3821525,43.0229457],[-89.3826798,43.022708],[-89.3830544,43.0225261],[-89.3832761,43.0224301],[-89.3834274,43.0223662],[-89.3834553,43.0223974],[-89.383481,43.0224518],[-89.3835053,43.0224587],[-89.3835732,43.0225402],[-89.3835961,43.0225692],[-89.3836234,43.022603],[-89.3836982,43.0226828],[-89.3837553,43.0227011],[-89.3838063,43.0226961],[-89.3845758,43.0223533],[-89.3855114,43.0219455],[-89.3868246,43.0214784],[-89.3877419,43.0211991],[-89.3890776,43.0208418],[-89.389615,43.0207165],[-89.390114,43.0205763],[-89.390888,43.0203352],[-89.3909781,43.0203204],[-89.3910641,43.0203146],[-89.3911095,43.0203115],[-89.3911617,43.0203039],[-89.391223,43.020295],[-89.3925087,43.019977],[-89.3929769,43.0199069],[-89.393327,43.0197654],[-89.3937819,43.0195963],[-89.394352,43.0194076],[-89.3945808,43.019337],[-89.3947173,43.0193011],[-89.3948739,43.0192606],[-89.3949318,43.0192442],[-89.3949672,43.0192333],[-89.3950025,43.0192129]]},"properties":{"bicycle":"designated","fee":"yes","foot":"designated","highway":"cycleway","lit":"no","motor_vehicle":"no","name":"Capital City State Trail","oneway":"no","segregated":"no","surface":"asphalt","width":"10'","osm_id":1264169548}},{"type":"Feature","geometry":{"type":"LineString","coordinates":[[-89.347289,43.0943187],[-89.3446052,43.0957375]]},"properties":{"bicycle":"designated","foot":"designated","highway":"cycleway","lit":"yes","name":"Capital City State Trail","railway":"abandoned","segregated":"no","surface":"asphalt","osm_id":1279241664}},{"type":"Feature","geometry":{"type":"LineString","coordinates":[[-89.3438099,43.0961227],[-89.3437426,43.0961803],[-89.343684,43.0962296]]},"properties":{"crossing":"uncontrolled","cycleway":"crossing","highway":"cycleway","lit":"yes","name":"Capital City State Trail","railway":"abandoned","surface":"asphalt","tactile_paving":"yes","width":"9'8\"","osm_id":1279241666}},{"type":"Feature","geometry":{"type":"LineString","coordinates":[[-89.344439,43.0958256],[-89.3440211,43.0960493],[-89.3439342,43.0960769],[-89.3438599,43.0960974],[-89.3438099,43.0961227]]},"properties":{"bicycle":"designated","foot":"designated","highway":"cycleway","lit":"yes","name":"Capital City State Trail","railway":"abandoned","segregated":"no","surface":"asphalt","osm_id":1279241669}},{"type":"Feature","geometry":{"type":"LineString","coordinates":[[-89.3446052,43.0957375],[-89.3445183,43.0957831],[-89.344439,43.0958256]]},"properties":{"crossing":"uncontrolled","cycleway":"crossing","highway":"cycleway","lit":"yes","name":"Capital City State Trail","railway":"abandoned","surface":"asphalt","tactile_paving":"yes","osm_id":1279241671}},{"type":"Feature","geometry":{"type":"LineString","coordinates":[[-89.3484419,43.0937117],[-89.3474255,43.094246]]},"properties":{"bicycle":"designated","foot":"designated","highway":"cycleway","lit":"yes","name":"Capital City State Trail","railway":"abandoned","segregated":"no","surface":"asphalt","osm_id":1279241672}},{"type":"Feature","geometry":{"type":"LineString","coordinates":[[-89.3474255,43.094246],[-89.3473579,43.0942823],[-89.347289,43.0943187]]},"properties":{"bicycle":"designated","colour":"green","crossing":"marked","cycleway":"crossing","foot":"designated","highway":"cycleway","lit":"yes","motor_vehicle":"no","name":"Capital City State Trail","railway":"abandoned","segregated":"no","surface":"asphalt","tactile_paving":"yes","traffic_calming":"table","osm_id":1279241673}},{"type":"Feature","geometry":{"type":"LineString","coordinates":[[-89.3494467,43.0932975],[-89.3494412,43.0933041],[-89.3494261,43.0933177],[-89.3494084,43.0933299],[-89.3493881,43.0933364],[-89.349366,43.093339],[-89.3493368,43.0933416],[-89.3492872,43.0933442],[-89.3492624,43.0933474],[-89.3492253,43.093352],[-89.3491156,43.0933746],[-89.3490483,43.0933901],[-89.3490191,43.0933998],[-89.3489775,43.0934146],[-89.3486397,43.0936079]]},"properties":{"bicycle":"designated","foot":"designated","highway":"cycleway","lit":"yes","name":"Capital City State Trail","railway":"abandoned","segregated":"no","surface":"asphalt","osm_id":1279241675}},{"type":"Feature","geometry":{"type":"LineString","coordinates":[[-89.3486397,43.0936079],[-89.3486143,43.0936231],[-89.348543,43.0936615],[-89.3484825,43.0936929],[-89.3484419,43.0937117]]},"properties":{"bicycle":"designated","colour":"green","crossing":"uncontrolled","cycleway":"crossing","foot":"designated","highway":"cycleway","lit":"yes","name":"Capital City State Trail","railway":"abandoned","segregated":"no","surface":"asphalt","tactile_paving":"yes","traffic_calming":"table","width":"14'8\"","osm_id":1279241677}},{"type":"Feature","geometry":{"type":"LineString","coordinates":[[-89.3512212,43.09232],[-89.3510906,43.0923989],[-89.3510174,43.0924424],[-89.3509305,43.0924855]]},"properties":{"crossing":"uncontrolled","cycleway":"crossing","highway":"cycleway","lit":"yes","name":"Capital City State Trail","railway":"abandoned","surface":"asphalt","osm_id":1279241678}},{"type":"Feature","geometry":{"type":"LineString","coordinates":[[-89.354463,43.0905317],[-89.354398,43.0905724],[-89.3543373,43.0906075],[-89.3542766,43.0906338],[-89.3541923,43.0906607],[-89.3541481,43.0906761],[-89.3540954,43.0906967],[-89.3533968,43.0910851],[-89.3518271,43.0918972],[-89.3515079,43.0920717],[-89.35147,43.0920962],[-89.351438,43.0921249],[-89.3513709,43.0921962],[-89.3513345,43.0922409],[-89.3512953,43.0922766],[-89.3512688,43.0922928],[-89.3512363,43.0923128],[-89.3512212,43.09232]]},"properties":{"bicycle":"designated","foot":"designated","highway":"cycleway","lit":"yes","name":"Capital City State Trail","railway":"abandoned","segregated":"no","surface":"asphalt","osm_id":1279241679}},{"type":"Feature","geometry":{"type":"LineString","coordinates":[[-89.3546002,43.0904606],[-89.3545296,43.0904987],[-89.354463,43.0905317]]},"properties":{"bicycle":"designated","crossing":"uncontrolled","cycleway":"crossing","foot":"designated","highway":"cycleway","lit":"yes","name":"Capital City State Trail","oneway":"no","railway":"abandoned","segregated":"no","surface":"asphalt","tactile_paving":"yes","traffic_calming":"table","osm_id":1279241680}},{"type":"Feature","geometry":{"type":"LineString","coordinates":[[-89.3588205,43.0881529],[-89.358652,43.0882428]]},"properties":{"bicycle":"designated","foot":"designated","highway":"cycleway","lit":"yes","name":"Capital City State Trail","segregated":"no","smoothness":"good","surface":"asphalt","osm_id":1279241681}},{"type":"Feature","geometry":{"type":"LineString","coordinates":[[-89.3589688,43.0880805],[-89.3589426,43.0880918],[-89.3588809,43.0881187],[-89.3588205,43.0881529]]},"properties":{"bicycle":"designated","crossing":"uncontrolled","cycleway":"crossing","foot":"designated","highway":"cycleway","lit":"yes","name":"Capital City State Trail","segregated":"no","smoothness":"good","surface":"asphalt","width":"11'8\"","osm_id":1279241682}},{"type":"Feature","geometry":{"type":"LineString","coordinates":[[-89.3740837,43.0777246],[-89.3724477,43.0788552]]},"properties":{"bicycle":"designated","foot":"designated","highway":"cycleway","name":"Capital City State Trail","segregated":"no","surface":"asphalt","osm_id":1279241683}},{"type":"Feature","geometry":{"type":"LineString","coordinates":[[-89.3724477,43.0788552],[-89.372371,43.0789089],[-89.3722846,43.078968]]},"properties":{"bicycle":"designated","crossing":"uncontrolled","cycleway":"crossing","foot":"designated","highway":"cycleway","name":"Capital City State Trail","segregated":"no","surface":"asphalt","tactile_paving":"yes","traffic_calming":"table","width":"12'4\"","osm_id":1279241685}},{"type":"Feature","geometry":{"type":"LineString","coordinates":[[-89.3796646,43.054303],[-89.379523,43.054191],[-89.3792464,43.0539762],[-89.37918,43.053926],[-89.379129,43.053887],[-89.3790743,43.0538292]]},"properties":{"highway":"residential","name":"Olin-Turville Court","surface":"asphalt","osm_id":1289774271}},{"type":"Feature","geometry":{"type":"LineString","coordinates":[[-89.3775815,43.0519713],[-89.3775465,43.051872],[-89.3774977,43.0517895]]},"properties":{"highway":"residential","name":"Olin-Turville Court","surface":"asphalt","osm_id":1289774272}},{"type":"Feature","geometry":{"type":"LineString","coordinates":[[-89.3800462,43.0239298],[-89.3800317,43.0239098],[-89.3799951,43.0238578]]},"properties":{"bicycle":"designated","fee":"yes","foot":"designated","highway":"cycleway","motor_vehicle":"no","name":"Capital City State Trail","oneway":"no","segregated":"no","surface":"concrete","width":"10'","osm_id":1296712883}},{"type":"Feature","geometry":{"type":"LineString","coordinates":[[-89.3857385,43.0665112],[-89.3855928,43.0666861],[-89.3854972,43.0668072],[-89.3853584,43.0669831],[-89.385344,43.0670014],[-89.3848805,43.0676535],[-89.3845801,43.068036],[-89.3844411,43.0681818]]},"properties":{"bicycle":"designated","foot":"designated","highway":"cycleway","lit":"no","name":"Capital City State Trail","segregated":"no","surface":"asphalt","osm_id":1334918679}},{"type":"Feature","geometry":{"type":"LineString","coordinates":[[-89.3755144,43.0760891],[-89.3755256,43.0761286]]},"properties":{"bicycle":"designated","crossing":"traffic_signals","cycleway":"crossing","highway":"cycleway","name":"Capital City State Trail","segregated":"no","osm_id":1425478420}},{"type":"Feature","geometry":{"type":"LineString","coordinates":[[-89.3115942,43.0838673],[-89.3115684,43.0838059]]},"properties":{"bicycle":"designated","foot":"designated","highway":"cycleway","name":"Capital City State Trail","segregated":"no","surface":"asphalt","osm_id":1425478421}},{"type":"Feature","geometry":{"type":"LineString","coordinates":[[-89.3799643,43.0712829],[-89.3798439,43.0713651]]},"properties":{"bicycle":"designated","foot":"designated","highway":"cycleway","incline":"0%","layer":"-1","name":"Capital City State Trail","segregated":"yes","tunnel":"yes","osm_id":1433943738}},{"type":"Feature","geometry":{"type":"LineString","coordinates":[[-89.3797305,43.0714545],[-89.3796246,43.071558]]},"properties":{"bicycle":"designated","foot":"designated","highway":"cycleway","incline":"0%","layer":"-1","name":"Capital City State Trail","segregated":"yes","tunnel":"yes","osm_id":1433943739}},{"type":"Feature","geometry":{"type":"LineString","coordinates":[[-89.3953412,43.019045],[-89.3953848,43.0190436]]},"properties":{"bicycle":"designated","crossing":"traffic_signals","cycleway":"crossing","fee":"yes","foot":"designated","highway":"cycleway","lit":"yes","motor_vehicle":"no","name":"Capital City State Trail","oneway":"no","segregated":"no","surface":"concrete","width":"10'","osm_id":1452400953}},{"type":"Feature","geometry":{"type":"LineString","coordinates":[[-89.3953848,43.0190436],[-89.3954076,43.0190428]]},"properties":{"bicycle":"designated","fee":"yes","foot":"designated","highway":"cycleway","lit":"yes","motor_vehicle":"no","name":"Capital City State Trail","oneway":"no","segregated":"no","surface":"concrete","width":"10'","osm_id":1452400954}},{"type":"Feature","geometry":{"type":"LineString","coordinates":[[-89.3952468,43.0190482],[-89.3952864,43.0190469],[-89.3953412,43.019045]]},"properties":{"bicycle":"designated","crossing":"traffic_signals","cycleway":"crossing","fee":"yes","foot":"designated","highway":"cycleway","lit":"yes","motor_vehicle":"no","name":"Capital City State Trail","oneway":"no","segregated":"no","surface":"asphalt","width":"10'","osm_id":1452400955}},{"type":"Feature","geometry":{"type":"LineString","coordinates":[[-89.3952186,43.0190491],[-89.3952468,43.0190482]]},"properties":{"bicycle":"designated","crossing":"traffic_signals","cycleway":"crossing","fee":"yes","foot":"designated","highway":"cycleway","lit":"yes","motor_vehicle":"no","name":"Capital City State Trail","oneway":"no","segregated":"no","surface":"concrete","width":"10'","osm_id":1452400956}},{"type":"Feature","geometry":{"type":"LineString","coordinates":[[-89.3951039,43.019053],[-89.3951735,43.0190507],[-89.3952186,43.0190491]]},"properties":{"bicycle":"designated","crossing":"traffic_signals","cycleway":"crossing","fee":"yes","foot":"designated","highway":"cycleway","lit":"yes","motor_vehicle":"no","name":"Capital City State Trail","oneway":"no","segregated":"no","surface":"asphalt","width":"10'","osm_id":1452400957}},{"type":"Feature","geometry":{"type":"LineString","coordinates":[[-89.3950472,43.0191497],[-89.395052,43.0191255],[-89.3950581,43.019113],[-89.3950702,43.0190833]]},"properties":{"bicycle":"designated","crossing":"traffic_signals","cycleway":"crossing","fee":"yes","foot":"designated","highway":"cycleway","lit":"yes","motor_vehicle":"no","name":"Capital City State Trail","oneway":"no","segregated":"no","surface":"asphalt","width":"10'","osm_id":1452400958}},{"type":"Feature","geometry":{"type":"LineString","coordinates":[[-89.3950264,43.0191899],[-89.3950472,43.0191497]]},"properties":{"bicycle":"designated","crossing":"traffic_signals","cycleway":"crossing","fee":"yes","foot":"designated","highway":"cycleway","lit":"yes","motor_vehicle":"no","name":"Capital City State Trail","oneway":"no","segregated":"no","surface":"concrete","width":"10'","osm_id":1452400959}},{"type":"Feature","geometry":{"type":"LineString","coordinates":[[-89.3950025,43.0192129],[-89.3950264,43.0191899]]},"properties":{"bicycle":"designated","fee":"yes","foot":"designated","highway":"cycleway","lit":"yes","motor_vehicle":"no","name":"Capital City State Trail","oneway":"no","segregated":"no","surface":"asphalt","width":"10'","osm_id":1452400960}},{"type":"Feature","geometry":{"type":"LineString","coordinates":[[-89.3742421,43.0776127],[-89.3742054,43.0776392]]},"properties":{"bicycle":"designated","foot":"designated","highway":"cycleway","name":"Capital City State Trail","segregated":"no","surface":"asphalt","osm_id":1453368202}},{"type":"Feature","geometry":{"type":"LineString","coordinates":[[-89.3741347,43.0776871],[-89.3741045,43.0777093],[-89.3740837,43.0777246]]},"properties":{"bicycle":"designated","foot":"designated","highway":"cycleway","name":"Capital City State Trail","segregated":"no","surface":"asphalt","osm_id":1453368203}},{"type":"Feature","geometry":{"type":"LineString","coordinates":[[-89.3753272,43.0759806],[-89.375391,43.0759958]]},"properties":{"bicycle":"designated","foot":"designated","highway":"cycleway","name":"Capital City State Trail","segregated":"no","osm_id":1463608569}},{"type":"Feature","geometry":{"type":"LineString","coordinates":[[-89.3755884,43.0762626],[-89.3756092,43.0763063]]},"properties":{"bicycle":"designated","foot":"designated","highway":"cycleway","name":"Capital City State Trail","segregated":"no","osm_id":1463750411}},{"type":"Feature","geometry":{"type":"LineString","coordinates":[[-89.3755256,43.0761286],[-89.3755329,43.076149]]},"properties":{"bicycle":"designated","highway":"cycleway","name":"Capital City State Trail","segregated":"no","osm_id":1463750413}},{"type":"Feature","geometry":{"type":"LineString","coordinates":[[-89.3755038,43.0760572],[-89.3755144,43.0760891]]},"properties":{"bicycle":"designated","crossing":"traffic_signals","cycleway":"crossing","foot":"designated","highway":"cycleway","name":"Capital City State Trail","segregated":"no","osm_id":1463750414}},{"type":"Feature","geometry":{"type":"LineString","coordinates":[[-89.3756092,43.0763063],[-89.3756089,43.0763391],[-89.375607,43.076354],[-89.3756006,43.0763679],[-89.3755903,43.0763795],[-89.3753984,43.0765702],[-89.3753731,43.0766135]]},"properties":{"bicycle":"designated","foot":"designated","highway":"cycleway","name":"Capital City State Trail","surface":"asphalt","osm_id":1463750426}},{"type":"Feature","geometry":{"type":"LineString","coordinates":[[-89.3253899,43.0899572],[-89.3252867,43.0899128]]},"properties":{"bicycle":"designated","crossing":"uncontrolled","cycleway":"crossing","foot":"designated","highway":"cycleway","lit":"yes","name":"Capital City State Trail","railway":"abandoned","segregated":"no","width":"8'","osm_id":1479101509}}]}