{"type": "FeatureCollection", "features": [{"type": "Feature", "geometry": {"type": "Point", "coordinates": [-89.3672473, 43.1019416]}, "properties": {"archaeological_site": "tumulus", "historic": "archaeological_site", "name": "Bird Effigy Mound", "osm_id": 3236398656}}, {"type": "Feature", "geometry": {"type": "Point", "coordinates": [-89.3400495, 43.0903321]}, "properties": {"archaeological_site": "earthwork", "historic": "archaeological_site", "name": "Bear Effigy Mound", "osm_id": 3236429286}}, {"type": "Feature", "geometry": {"type": "Point", "coordinates": [-89.3405437, 43.0901633]}, "properties": {"archaeological_site": "earthwork", "historic": "archaeological_site", "name": "Lynx Effigy Mound", "osm_id": 3236429287}}, {"type": "Feature", "geometry": {"type": "Point", "coordinates": [-89.3454005, 43.0899503]}, "properties": {"archaeological_site": "earthwork", "historic": "archaeological_site", "name": "Lizard Effigy Mound", "osm_id": 3236440162}}, {"type": "Feature", "geometry": {"type": "Point", "coordinates": [-89.3103284, 43.0561142]}, "properties": {"historic": "archaeological_site", "name": "Panther Effigy Mound", "osm_id": 3236448272}}, {"type": "Feature", "geometry": {"type": "Point", "coordinates": [-89.4108364, 43.0631156]}, "properties": {"archaeological_site": "earthwork", "historic": "archaeological_site", "name": "Bear Effigy Mound", "ref:nrhp": "74000078", "osm_id": 3236475008}}, {"type": "Feature", "geometry": {"type": "Point", "coordinates": [-89.4237184, 43.0571018]}, "properties": {"archaeological_site": "tumulus", "historic": "archaeological_site", "name": "Bird Effigy Mound", "osm_id": 3236501981}}, {"type": "Feature", "geometry": {"type": "Point", "coordinates": [-89.3975315, 43.1294611]}, "properties": {"archaeological_site": "tumulus", "historic": "archaeological_site", "name": "Eagle Mound", "osm_id": 3243320822}}, {"type": "Feature", "geometry": {"type": "Point", "coordinates": [-89.4318103, 43.05998]}, "properties": {"historic": "archaeological_site", "name": "Effigy Mounds", "osm_id": 4788359325}}, {"type": "Feature", "geometry": {"type": "Point", "coordinates": [-89.3978055, 43.1289051]}, "properties": {"archaeological_site": "tumulus", "historic": "archaeological_site", "name": "Eagle Mound", "osm_id": 5250555969}}, {"type": "Feature", "geometry": {"type": "Point", "coordinates": [-89.39522, 43.1295237]}, "properties": {"archaeological_site": "tumulus", "historic": "archaeological_site", "osm_id": 5250555970}}, {"type": "Feature", "geometry": {"type": "Point", "coordinates": [-89.395794, 43.1303457]}, "properties": {"archaeological_site": "tumulus", "historic": "archaeological_site", "name": "Eagle Mound", "osm_id": 5250555971}}, {"type": "Feature", "geometry": {"type": "Point", "coordinates": [-89.3997207, 43.1293787]}, "properties": {"archaeological_site": "tumulus", "historic": "archaeological_site", "name": "Panther Mound", "osm_id": 5250555972}}, {"type": "Feature", "geometry": {"type": "Point", "coordinates": [-89.3971373, 43.1301424]}, "properties": {"archaeological_site": "tumulus", "historic": "archaeological_site", "name": "Deer Mound", "osm_id": 5250555973}}, {"type": "Feature", "geometry": {"type": "Point", "coordinates": [-89.4101711, 43.0761388]}, "properties": {"archaeological_site": "tumulus", "historic": "archaeological_site", "name": "Bird Mound", "osm_id": 5252813900}}, {"type": "Feature", "geometry": {"type": "Point", "coordinates": [-89.4441221, 43.0863441]}, "properties": {"archaeological_site": "tumulus", "historic": "archaeological_site", "name": "Eagle Heights Mounds Group", "osm_id": 5252813902}}, {"type": "Feature", "geometry": {"type": "Point", "coordinates": [-89.4233354, 43.0858596]}, "properties": {"archaeological_site": "tumulus", "historic": "archaeological_site", "historic:civilization": "native_american", "name": "Picnic Point Mound Group", "osm_id": 5252813906}}, {"type": "Feature", "geometry": {"type": "Point", "coordinates": [-89.4104313, 43.0761093]}, "properties": {"archaeological_site": "tumulus", "historic": "archaeological_site", "name": "Water Spirit Mound", "osm_id": 5252813907}}, {"type": "Feature", "geometry": {"type": "Point", "coordinates": [-89.4202803, 43.0776846]}, "properties": {"archaeological_site": "tumulus", "historic": "archaeological_site", "name": "Willow Drive Mounds", "osm_id": 5252813908}}, {"type": "Feature", "geometry": {"type": "Point", "coordinates": [-89.4264771, 43.0467622]}, "properties": {"archaeological_site": "tumulus", "historic": "archaeological_site", "name": "Effigy Mounds", "osm_id": 6525782931}}, {"type": "Feature", "geometry": {"type": "Point", "coordinates": [-89.4251047, 43.0450104]}, "properties": {"archaeological_site": "tumulus", "historic": "archaeological_site", "name": "Effigy Mounds", "osm_id": 6532893065}}, {"type": "Feature", "geometry": {"type": "Point", "coordinates": [-89.3512247, 43.0243201]}, "properties": {"access": "no", "archaeological_site": "tumulus", "historic": "archaeological_site", "name": "Effigy Mounds", "osm_id": 6580983497}}, {"type": "Feature", "geometry": {"type": "Point", "coordinates": [-89.4201992, 43.0866864]}, "properties": {"archaeological_site": "tumulus", "historic": "archaeological_site", "name": "Picnic Point Mound 7", "osm_id": 9570960294}}, {"type": "Feature", "geometry": {"type": "Point", "coordinates": [-89.4078115, 43.0594442]}, "properties": {"archaeological_site": "tumulus", "historic": "archaeological_site", "osm_id": 11016431733}}, {"type": "Feature", "geometry": {"type": "Point", "coordinates": [-89.4078531, 43.0593051]}, "properties": {"archaeological_site": "tumulus", "historic": "archaeological_site", "osm_id": 11016431734}}, {"type": "Feature", "geometry": {"type": "Point", "coordinates": [-89.4077297, 43.059359]}, "properties": {"archaeological_site": "tumulus", "historic": "archaeological_site", "osm_id": 11016431735}}, {"type": "Feature", "geometry": {"type": "Point", "coordinates": [-89.4080073, 43.0594011]}, "properties": {"archaeological_site": "tumulus", "historic": "archaeological_site", "osm_id": 11016431736}}, {"type": "Feature", "geometry": {"type": "Point", "coordinates": [-89.4079818, 43.0594864]}, "properties": {"archaeological_site": "tumulus", "historic": "archaeological_site", "osm_id": 11016431737}}, {"type": "Feature", "geometry": {"type": "Point", "coordinates": [-89.4079107, 43.0594148]}, "properties": {"archaeological_site": "tumulus", "historic": "archaeological_site", "osm_id": 11016431738}}, {"type": "Feature", "geometry": {"type": "Point", "coordinates": [-89.437767, 43.1270755]}, "properties": {"archaeological_site": "tumulus", "historic": "archaeological_site", "name": "Panther Mound", "osm_id": 12504978273}}, {"type": "Feature", "geometry": {"type": "Point", "coordinates": [-89.4389474, 43.1260282]}, "properties": {"archaeological_site": "tumulus", "historic": "archaeological_site", "name": "Conical Mound", "osm_id": 12504978274}}, {"type": "Feature", "geometry": {"type": "Point", "coordinates": [-89.4212917, 43.0569417]}, "properties": {"archaeological_site": "tumulus", "historic": "archaeological_site", "wikipedia": "https://en.wikipedia.org/wiki/Edgewood_College_Mound_Group_Archaeological_District", "osm_id": 13652887358}}]}