{"type": "FeatureCollection", "features": [{"type": "Feature", "geometry": {"type": "Point", "coordinates": [-89.4237211, 43.0682921]}, "properties": {"amenity": "public_bookcase", "brand": "Little Free Library", "brand:wikidata": "Q6650101", "check_date": "2025-09-13", "name": "Little Free Library", "panoramax": "6c46c937-fc12-4622-9977-9f13ab86a33c", "ref": "0017", "osm_id": 1596592505}}, {"type": "Feature", "geometry": {"type": "Point", "coordinates": [-89.3630813, 43.083702]}, "properties": {"amenity": "public_bookcase", "brand": "Little Free Library", "brand:wikidata": "Q6650101", "check_date": "2024-03-31", "name": "Little Free Library", "osm_id": 3288092004}}, {"type": "Feature", "geometry": {"type": "Point", "coordinates": [-89.4239939, 43.0708859]}, "properties": {"amenity": "public_bookcase", "brand": "Little Free Library", "brand:wikidata": "Q6650101", "check_date": "2023-11-16", "name": "Little Free Library", "operator": "Little Free Library", "osm_id": 3708586632}}, {"type": "Feature", "geometry": {"type": "Point", "coordinates": [-89.4269965, 43.0711964]}, "properties": {"amenity": "public_bookcase", "brand": "Little Free Library", "brand:wikidata": "Q6650101", "check_date": "2025-09-14", "name": "Little Free Library", "operator": "Little Free Library", "osm_id": 3715191205}}, {"type": "Feature", "geometry": {"type": "Point", "coordinates": [-89.4197511, 43.0652885]}, "properties": {"amenity": "public_bookcase", "brand": "Little Free Library", "brand:wikidata": "Q6650101", "name": "Little Free Library", "osm_id": 3722069088}}, {"type": "Feature", "geometry": {"type": "Point", "coordinates": [-89.4254535, 43.0633532]}, "properties": {"amenity": "public_bookcase", "brand": "Little Free Library", "brand:wikidata": "Q6650101", "name": "Little Free Library", "operator": "Little Free Library", "ref": "5711", "osm_id": 3782771495}}, {"type": "Feature", "geometry": {"type": "Point", "coordinates": [-89.4878429, 43.0881348]}, "properties": {"amenity": "public_bookcase", "brand": "Little Free Library", "brand:wikidata": "Q6650101", "name": "Little Free Library", "operator": "Little Free Library", "osm_id": 3785535702}}, {"type": "Feature", "geometry": {"type": "Point", "coordinates": [-89.419828, 43.0700338]}, "properties": {"amenity": "public_bookcase", "brand": "Little Free Library", "brand:wikidata": "Q6650101", "name": "Little Free Library", "operator": "Little Free Library", "ref": "23517", "website": "https://www.littlefreelibrary.org/", "osm_id": 3835834674}}, {"type": "Feature", "geometry": {"type": "Point", "coordinates": [-89.4989828, 43.0706669]}, "properties": {"amenity": "public_bookcase", "osm_id": 4391213980}}, {"type": "Feature", "geometry": {"type": "Point", "coordinates": [-89.4266174, 43.0577544]}, "properties": {"amenity": "public_bookcase", "brand": "Little Free Library", "brand:wikidata": "Q6650101", "name": "Little Free Library", "osm_id": 4641123717}}, {"type": "Feature", "geometry": {"type": "Point", "coordinates": [-89.4042142, 43.0696379]}, "properties": {"amenity": "public_bookcase", "brand": "Little Free Library", "brand:wikidata": "Q6650101", "name": "Little Free Library", "osm_id": 4689623091}}, {"type": "Feature", "geometry": {"type": "Point", "coordinates": [-89.4865602, 43.064184]}, "properties": {"amenity": "public_bookcase", "osm_id": 4785293155}}, {"type": "Feature", "geometry": {"type": "Point", "coordinates": [-89.504826, 43.0406915]}, "properties": {"amenity": "public_bookcase", "osm_id": 4883987432}}, {"type": "Feature", "geometry": {"type": "Point", "coordinates": [-89.4968927, 43.0663303]}, "properties": {"amenity": "public_bookcase", "osm_id": 5033143537}}, {"type": "Feature", "geometry": {"type": "Point", "coordinates": [-89.3726737, 43.0923381]}, "properties": {"amenity": "public_bookcase", "brand": "Little Free Library", "brand:wikidata": "Q6650101", "check_date": "2026-02-15", "name": "Little Free Library", "osm_id": 5285248014}}, {"type": "Feature", "geometry": {"type": "Point", "coordinates": [-89.4213391, 43.0212678]}, "properties": {"amenity": "public_bookcase", "osm_id": 5422588833}}, {"type": "Feature", "geometry": {"type": "Point", "coordinates": [-89.4326999, 43.0131214]}, "properties": {"amenity": "public_bookcase", "brand": "Little Free Library", "brand:wikidata": "Q6650101", "name": "Little Free Library", "osm_id": 5448974605}}, {"type": "Feature", "geometry": {"type": "Point", "coordinates": [-89.529098, 43.0281574]}, "properties": {"amenity": "public_bookcase", "brand": "Little Free Library", "brand:wikidata": "Q6650101", "name": "Little Free Library", "osm_id": 5620099200}}, {"type": "Feature", "geometry": {"type": "Point", "coordinates": [-89.3236605, 43.0801609]}, "properties": {"amenity": "public_bookcase", "brand": "Little Free Library", "brand:wikidata": "Q6650101", "name": "Little Free Library", "website": "https://littlefreelibrary.org/", "osm_id": 5706990798}}, {"type": "Feature", "geometry": {"type": "Point", "coordinates": [-89.4385536, 43.0120376]}, "properties": {"amenity": "public_bookcase", "brand": "Little Free Library", "brand:wikidata": "Q6650101", "name": "Little Free Library", "osm_id": 6202143656}}, {"type": "Feature", "geometry": {"type": "Point", "coordinates": [-89.4323873, 43.0140483]}, "properties": {"amenity": "public_bookcase", "brand": "Little Free Library", "brand:wikidata": "Q6650101", "name": "Little Free Library", "osm_id": 6245808861}}, {"type": "Feature", "geometry": {"type": "Point", "coordinates": [-89.4517754, 43.0260937]}, "properties": {"amenity": "public_bookcase", "brand": "Little Free Library", "brand:wikidata": "Q6650101", "name": "Little Free Library", "osm_id": 6263907191}}, {"type": "Feature", "geometry": {"type": "Point", "coordinates": [-89.4486942, 43.0326091]}, "properties": {"amenity": "public_bookcase", "brand": "Little Free Library", "brand:wikidata": "Q6650101", "name": "Little Free Library", "osm_id": 6270126868}}, {"type": "Feature", "geometry": {"type": "Point", "coordinates": [-89.4417806, 43.0759652]}, "properties": {"amenity": "public_bookcase", "brand": "Little Free Library", "brand:wikidata": "Q6650101", "name": "Little Free Library", "osm_id": 6311398076}}, {"type": "Feature", "geometry": {"type": "Point", "coordinates": [-89.4968578, 43.0886859]}, "properties": {"amenity": "public_bookcase", "brand": "Little Free Library", "brand:wikidata": "Q6650101", "name": "Little Free Library", "osm_id": 6462896623}}, {"type": "Feature", "geometry": {"type": "Point", "coordinates": [-89.3704402, 43.0775807]}, "properties": {"amenity": "public_bookcase", "brand": "Little Free Library", "brand:wikidata": "Q6650101", "name": "Little Free Library", "osm_id": 6530509984}}, {"type": "Feature", "geometry": {"type": "Point", "coordinates": [-89.4938669, 43.0871407]}, "properties": {"amenity": "public_bookcase", "brand": "Little Free Library", "brand:wikidata": "Q6650101", "capacity": "20", "lit": "no", "name": "Little Free Library", "operator": "Becky Braucht", "osm_id": 6541097137}}, {"type": "Feature", "geometry": {"type": "Point", "coordinates": [-89.4513812, 43.0562088]}, "properties": {"amenity": "public_bookcase", "brand": "Little Free Library", "brand:wikidata": "Q6650101", "name": "Little Free Library", "osm_id": 9129119199}}, {"type": "Feature", "geometry": {"type": "Point", "coordinates": [-89.4519325, 43.0741775]}, "properties": {"amenity": "public_bookcase", "osm_id": 9301678889}}, {"type": "Feature", "geometry": {"type": "Point", "coordinates": [-89.4528045, 43.0673516]}, "properties": {"amenity": "public_bookcase", "check_date": "2026-04-26", "osm_id": 9338746722}}, {"type": "Feature", "geometry": {"type": "Point", "coordinates": [-89.4422365, 43.0454977]}, "properties": {"amenity": "public_bookcase", "brand": "Little Free Library", "brand:wikidata": "Q6650101", "name": "Little Free Library", "osm_id": 9667199097}}, {"type": "Feature", "geometry": {"type": "Point", "coordinates": [-89.3668749, 43.0896426]}, "properties": {"amenity": "public_bookcase", "brand": "Little Free Library", "brand:wikidata": "Q6650101", "check_date": "2026-02-15", "name": "Little Free Library", "public_bookcase:type": "wooden_cabinet", "osm_id": 9920251665}}, {"type": "Feature", "geometry": {"type": "Point", "coordinates": [-89.3682174, 43.0886806]}, "properties": {"amenity": "public_bookcase", "brand": "Little Free Library", "brand:wikidata": "Q6650101", "check_date": "2026-02-15", "name": "Little Free Library", "osm_id": 9920251678}}, {"type": "Feature", "geometry": {"type": "Point", "coordinates": [-89.3704163, 43.0802246]}, "properties": {"amenity": "public_bookcase", "brand": "Little Free Library", "brand:wikidata": "Q6650101", "check_date": "2024-11-23", "name": "Little Free Library", "osm_id": 9938328999}}, {"type": "Feature", "geometry": {"type": "Point", "coordinates": [-89.4189525, 43.0681065]}, "properties": {"amenity": "public_bookcase", "brand": "Little Free Library", "brand:wikidata": "Q6650101", "check_date": "2025-07-26", "name": "Little Free Library", "osm_id": 10772022084}}, {"type": "Feature", "geometry": {"type": "Point", "coordinates": [-89.5174191, 43.0578706]}, "properties": {"amenity": "public_bookcase", "brand": "Little Free Library", "brand:wikidata": "Q6650101", "name": "Little Free Library", "osm_id": 11035108038}}, {"type": "Feature", "geometry": {"type": "Point", "coordinates": [-89.3601484, 43.0854593]}, "properties": {"amenity": "public_bookcase", "brand": "Little Free Library", "brand:wikidata": "Q6650101", "check_date": "2025-10-05", "name": "Little Free Library", "osm_id": 11077590967}}, {"type": "Feature", "geometry": {"type": "Point", "coordinates": [-89.4163392, 43.0617842]}, "properties": {"amenity": "public_bookcase", "brand": "Little Free Library", "brand:wikidata": "Q6650101", "name": "Little Free Library", "osm_id": 11077669511}}, {"type": "Feature", "geometry": {"type": "Point", "coordinates": [-89.416681, 43.0660483]}, "properties": {"amenity": "public_bookcase", "brand": "Little Free Library", "brand:wikidata": "Q6650101", "check_date": "2026-04-15", "name": "Little Free Library", "osm_id": 11077669512}}, {"type": "Feature", "geometry": {"type": "Point", "coordinates": [-89.2838488, 43.0155277]}, "properties": {"amenity": "public_bookcase", "brand": "Little Free Library", "brand:wikidata": "Q6650101", "name": "Little Free Library", "osm_id": 11686668456}}, {"type": "Feature", "geometry": {"type": "Point", "coordinates": [-89.3611342, 43.0843991]}, "properties": {"amenity": "public_bookcase", "brand": "Little Free Library", "brand:wikidata": "Q6650101", "name": "Little Free Library", "osm_id": 11822907379}}, {"type": "Feature", "geometry": {"type": "Point", "coordinates": [-89.3514747, 43.1104089]}, "properties": {"amenity": "public_bookcase", "brand": "Little Free Library", "brand:wikidata": "Q6650101", "name": "Little Free Library", "osm_id": 11999412528}}, {"type": "Feature", "geometry": {"type": "Point", "coordinates": [-89.385733, 43.0740485]}, "properties": {"amenity": "public_bookcase", "brand": "Little Free Library", "brand:wikidata": "Q6650101", "name": "Little Free Library", "osm_id": 12070625268}}, {"type": "Feature", "geometry": {"type": "Point", "coordinates": [-89.3563582, 43.0840049]}, "properties": {"amenity": "public_bookcase", "brand": "Little Free Library", "brand:wikidata": "Q6650101", "name": "Little Free Library", "osm_id": 12070625786}}, {"type": "Feature", "geometry": {"type": "Point", "coordinates": [-89.4841317, 43.0864647]}, "properties": {"amenity": "public_bookcase", "osm_id": 12086066434}}, {"type": "Feature", "geometry": {"type": "Point", "coordinates": [-89.4476016, 43.0628948]}, "properties": {"amenity": "public_bookcase", "brand": "Little Free Library", "brand:wikidata": "Q6650101", "name": "Little Free Library", "osm_id": 12091395379}}, {"type": "Feature", "geometry": {"type": "Point", "coordinates": [-89.4444519, 43.0467249]}, "properties": {"amenity": "public_bookcase", "brand": "Little Free Library", "brand:wikidata": "Q6650101", "osm_id": 12879121853}}, {"type": "Feature", "geometry": {"type": "Point", "coordinates": [-89.4213254, 43.0693105]}, "properties": {"amenity": "public_bookcase", "brand": "Little Free Library", "brand:wikidata": "Q6650101", "osm_id": 12964994713}}, {"type": "Feature", "geometry": {"type": "Point", "coordinates": [-89.3445824, 43.0900799]}, "properties": {"amenity": "public_bookcase", "osm_id": 13128903907}}, {"type": "Feature", "geometry": {"type": "Point", "coordinates": [-89.3509005, 43.0948652]}, "properties": {"amenity": "public_bookcase", "brand": "Little Free Library", "brand:wikidata": "Q6650101", "name": "Little Free Library", "osm_id": 13241197254}}, {"type": "Feature", "geometry": {"type": "Point", "coordinates": [-89.3667001, 43.0799849]}, "properties": {"amenity": "public_bookcase", "brand": "Little Free Library", "brand:wikidata": "Q6650101", "osm_id": 13265331863}}, {"type": "Feature", "geometry": {"type": "Point", "coordinates": [-89.4113713, 43.0621926]}, "properties": {"amenity": "public_bookcase", "brand": "Little Free Library", "brand:wikidata": "Q6650101", "name": "Little Free Library", "public_bookcase:type": "reading_box", "osm_id": 13335079858}}, {"type": "Feature", "geometry": {"type": "Point", "coordinates": [-89.4087985, 43.0643355]}, "properties": {"amenity": "public_bookcase", "brand": "Little Free Library", "brand:wikidata": "Q6650101", "name": "Little Free Library", "osm_id": 13335079859}}, {"type": "Feature", "geometry": {"type": "Point", "coordinates": [-89.4050447, 43.0610585]}, "properties": {"amenity": "public_bookcase", "brand": "Little Free Library", "brand:wikidata": "Q6650101", "name": "Little Free Library", "osm_id": 13335079860}}, {"type": "Feature", "geometry": {"type": "Point", "coordinates": [-89.4041983, 43.0656283]}, "properties": {"amenity": "public_bookcase", "brand": "Little Free Library", "brand:wikidata": "Q6650101", "name": "Little Free Library", "osm_id": 13335079861}}, {"type": "Feature", "geometry": {"type": "Point", "coordinates": [-89.403928, 43.0666417]}, "properties": {"amenity": "public_bookcase", "brand": "Little Free Library", "brand:wikidata": "Q6650101", "name": "Little Free Library", "osm_id": 13335079862}}, {"type": "Feature", "geometry": {"type": "Point", "coordinates": [-89.406501, 43.0676401]}, "properties": {"amenity": "public_bookcase", "brand": "Little Free Library", "brand:wikidata": "Q6650101", "name": "Little Free Library", "osm_id": 13335079863}}, {"type": "Feature", "geometry": {"type": "Point", "coordinates": [-89.4035198, 43.0568115]}, "properties": {"amenity": "public_bookcase", "brand": "Little Free Library", "brand:wikidata": "Q6650101", "name": "Little Free Library", "osm_id": 13335079864}}, {"type": "Feature", "geometry": {"type": "Point", "coordinates": [-89.38836, 43.0385053]}, "properties": {"amenity": "public_bookcase", "brand": "Little Free Library", "brand:wikidata": "Q6650101", "osm_id": 13430780601}}, {"type": "Feature", "geometry": {"type": "Point", "coordinates": [-89.4878013, 43.0148257]}, "properties": {"amenity": "public_bookcase", "osm_id": 13551131552}}, {"type": "Feature", "geometry": {"type": "Point", "coordinates": [-89.4907224, 43.0129192]}, "properties": {"amenity": "public_bookcase", "brand": "Little Free Library", "brand:wikidata": "Q6650101", "public_bookcase:type": "wooden_cabinet", "osm_id": 13563274397}}, {"type": "Feature", "geometry": {"type": "Point", "coordinates": [-89.4964839, 43.0145046]}, "properties": {"amenity": "public_bookcase", "brand": "Little Free Library", "brand:wikidata": "Q6650101", "osm_id": 13608420168}}, {"type": "Feature", "geometry": {"type": "Point", "coordinates": [-89.4069336, 43.070854]}, "properties": {"amenity": "public_bookcase", "brand": "Little Free Library", "brand:wikidata": "Q6650101", "name": "Little Free Library", "osm_id": 13723553110}}, {"type": "Feature", "geometry": {"type": "Point", "coordinates": [-89.3994823, 43.0661951]}, "properties": {"amenity": "public_bookcase", "brand": "Little Free Library", "brand:wikidata": "Q6650101", "name": "Little Free Library", "osm_id": 13723553111}}, {"type": "Feature", "geometry": {"type": "Point", "coordinates": [-89.3922828, 43.0549807]}, "properties": {"amenity": "public_bookcase", "brand": "Little Free Library", "brand:wikidata": "Q6650101", "name": "Little Free Library", "osm_id": 13723553112}}, {"type": "Feature", "geometry": {"type": "Point", "coordinates": [-89.3901519, 43.0533984]}, "properties": {"amenity": "public_bookcase", "brand": "Little Free Library", "brand:wikidata": "Q6650101", "name": "Little Free Library", "osm_id": 13723553113}}, {"type": "Feature", "geometry": {"type": "Point", "coordinates": [-89.3904385, 43.0530065]}, "properties": {"amenity": "public_bookcase", "brand": "Little Free Library", "brand:wikidata": "Q6650101", "name": "Little Free Library", "osm_id": 13723553114}}, {"type": "Feature", "geometry": {"type": "Point", "coordinates": [-89.3842641, 43.054351]}, "properties": {"amenity": "public_bookcase", "brand": "Little Free Library", "brand:wikidata": "Q6650101", "name": "Little Free Library", "osm_id": 13723553115}}, {"type": "Feature", "geometry": {"type": "Point", "coordinates": [-89.4174145, 43.048079]}, "properties": {"amenity": "public_bookcase", "brand": "Little Free Library", "brand:wikidata": "Q6650101", "name": "Little Free Library", "osm_id": 13723553116}}, {"type": "Feature", "geometry": {"type": "Point", "coordinates": [-89.4100523, 43.0447064]}, "properties": {"amenity": "public_bookcase", "brand": "Little Free Library", "brand:wikidata": "Q6650101", "name": "Little Free Library", "osm_id": 13723553117}}, {"type": "Feature", "geometry": {"type": "Point", "coordinates": [-89.3990236, 43.0410334]}, "properties": {"amenity": "public_bookcase", "brand": "Little Free Library", "brand:wikidata": "Q6650101", "name": "Little Free Library", "osm_id": 13723553118}}, {"type": "Feature", "geometry": {"type": "Point", "coordinates": [-89.387091, 43.0436488]}, "properties": {"amenity": "public_bookcase", "brand": "Little Free Library", "brand:wikidata": "Q6650101", "name": "Little Free Library", "osm_id": 13723553119}}, {"type": "Feature", "geometry": {"type": "Point", "coordinates": [-89.3853044, 43.0684328]}, "properties": {"amenity": "public_bookcase", "brand": "Little Free Library", "brand:wikidata": "Q6650101", "name": "Little Free Library", "osm_id": 13723598359}}, {"type": "Feature", "geometry": {"type": "Point", "coordinates": [-89.3879404, 43.0771972]}, "properties": {"amenity": "public_bookcase", "brand": "Little Free Library", "brand:wikidata": "Q6650101", "name": "Little Free Library", "osm_id": 13723598360}}, {"type": "Feature", "geometry": {"type": "Point", "coordinates": [-89.3837393, 43.0764128]}, "properties": {"amenity": "public_bookcase", "brand": "Little Free Library", "brand:wikidata": "Q6650101", "name": "Little Free Library", "osm_id": 13723598361}}, {"type": "Feature", "geometry": {"type": "Point", "coordinates": [-89.3803886, 43.078616]}, "properties": {"amenity": "public_bookcase", "brand": "Little Free Library", "brand:wikidata": "Q6650101", "name": "Little Free Library", "osm_id": 13723598362}}, {"type": "Feature", "geometry": {"type": "Point", "coordinates": [-89.3813587, 43.0822527]}, "properties": {"amenity": "public_bookcase", "brand": "Little Free Library", "brand:wikidata": "Q6650101", "name": "Little Free Library", "osm_id": 13723646844}}, {"type": "Feature", "geometry": {"type": "Point", "coordinates": [-89.362186, 43.0817605]}, "properties": {"amenity": "public_bookcase", "brand": "Little Free Library", "brand:wikidata": "Q6650101", "name": "Little Free Library", "osm_id": 13723646845}}, {"type": "Feature", "geometry": {"type": "Point", "coordinates": [-89.3721371, 43.0864641]}, "properties": {"amenity": "public_bookcase", "brand": "Little Free Library", "brand:wikidata": "Q6650101", "name": "Little Free Library", "osm_id": 13723646846}}, {"type": "Feature", "geometry": {"type": "Point", "coordinates": [-89.3733521, 43.0902934]}, "properties": {"amenity": "public_bookcase", "brand": "Little Free Library", "brand:wikidata": "Q6650101", "name": "Little Free Library", "osm_id": 13723646847}}, {"type": "Feature", "geometry": {"type": "Point", "coordinates": [-89.3719771, 43.0923261]}, "properties": {"amenity": "public_bookcase", "brand": "Little Free Library", "brand:wikidata": "Q6650101", "name": "Little Free Library", "osm_id": 13723646848}}, {"type": "Feature", "geometry": {"type": "Point", "coordinates": [-89.3676492, 43.0903019]}, "properties": {"amenity": "public_bookcase", "brand": "Little Free Library", "brand:wikidata": "Q6650101", "name": "Little Free Library", "osm_id": 13723646849}}, {"type": "Feature", "geometry": {"type": "Point", "coordinates": [-89.3594611, 43.0827675]}, "properties": {"amenity": "public_bookcase", "brand": "Little Free Library", "brand:wikidata": "Q6650101", "name": "Little Free Library", "osm_id": 13723690353}}, {"type": "Feature", "geometry": {"type": "Point", "coordinates": [-89.3552195, 43.0845125]}, "properties": {"amenity": "public_bookcase", "brand": "Little Free Library", "brand:wikidata": "Q6650101", "name": "Little Free Library", "osm_id": 13723690354}}, {"type": "Feature", "geometry": {"type": "Point", "coordinates": [-89.3563897, 43.0852411]}, "properties": {"amenity": "public_bookcase", "brand": "Little Free Library", "brand:wikidata": "Q6650101", "name": "Little Free Library", "osm_id": 13723690355}}, {"type": "Feature", "geometry": {"type": "Point", "coordinates": [-89.3470684, 43.0905169]}, "properties": {"amenity": "public_bookcase", "brand": "Little Free Library", "brand:wikidata": "Q6650101", "name": "Little Free Library", "osm_id": 13723696757}}, {"type": "Feature", "geometry": {"type": "Point", "coordinates": [-89.3469436, 43.0914204]}, "properties": {"amenity": "public_bookcase", "brand": "Little Free Library", "brand:wikidata": "Q6650101", "name": "Little Free Library", "osm_id": 13723696758}}, {"type": "Feature", "geometry": {"type": "Point", "coordinates": [-89.3447445, 43.0930253]}, "properties": {"amenity": "public_bookcase", "brand": "Little Free Library", "brand:wikidata": "Q6650101", "name": "Little Free Library", "osm_id": 13723696759}}, {"type": "Feature", "geometry": {"type": "Point", "coordinates": [-89.3564627, 43.0906089]}, "properties": {"amenity": "public_bookcase", "brand": "Little Free Library", "brand:wikidata": "Q6650101", "name": "Little Free Library", "osm_id": 13723745749}}, {"type": "Feature", "geometry": {"type": "Point", "coordinates": [-89.3524645, 43.0883102]}, "properties": {"amenity": "public_bookcase", "brand": "Little Free Library", "brand:wikidata": "Q6650101", "name": "Little Free Library", "osm_id": 13723745750}}, {"type": "Feature", "geometry": {"type": "Point", "coordinates": [-89.352888, 43.0890057]}, "properties": {"amenity": "public_bookcase", "brand": "Little Free Library", "brand:wikidata": "Q6650101", "name": "Little Free Library", "osm_id": 13723745751}}, {"type": "Feature", "geometry": {"type": "Point", "coordinates": [-89.3568118, 43.0950986]}, "properties": {"amenity": "public_bookcase", "brand": "Little Free Library", "brand:wikidata": "Q6650101", "name": "Little Free Library", "osm_id": 13723745752}}, {"type": "Feature", "geometry": {"type": "Point", "coordinates": [-89.3563488, 43.0947453]}, "properties": {"amenity": "public_bookcase", "brand": "Little Free Library", "brand:wikidata": "Q6650101", "name": "Little Free Library", "osm_id": 13723745753}}, {"type": "Feature", "geometry": {"type": "Point", "coordinates": [-89.3497534, 43.0948199]}, "properties": {"amenity": "public_bookcase", "brand": "Little Free Library", "brand:wikidata": "Q6650101", "name": "Little Free Library", "osm_id": 13835135457}}, {"type": "Feature", "geometry": {"type": "Point", "coordinates": [-89.3485599, 43.0969753]}, "properties": {"amenity": "public_bookcase", "brand": "Little Free Library", "brand:wikidata": "Q6650101", "name": "Little Free Library", "osm_id": 13835135458}}, {"type": "Feature", "geometry": {"type": "Point", "coordinates": [-89.3474825, 43.0953822]}, "properties": {"amenity": "public_bookcase", "brand": "Little Free Library", "brand:wikidata": "Q6650101", "name": "Little Free Library", "osm_id": 13835135459}}, {"type": "Feature", "geometry": {"type": "Point", "coordinates": [-89.3471978, 43.0964033]}, "properties": {"amenity": "public_bookcase", "brand": "Little Free Library", "brand:wikidata": "Q6650101", "name": "Little Free Library", "osm_id": 13835135460}}, {"type": "Feature", "geometry": {"type": "Point", "coordinates": [-89.3486069, 43.0956463]}, "properties": {"amenity": "public_bookcase", "brand": "Little Free Library", "brand:wikidata": "Q6650101", "name": "Little Free Library", "osm_id": 13835135461}}, {"type": "Feature", "geometry": {"type": "Point", "coordinates": [-89.3427532, 43.0920783]}, "properties": {"amenity": "public_bookcase", "brand": "Little Free Library", "brand:wikidata": "Q6650101", "name": "Little Free Library", "osm_id": 13835135462}}, {"type": "Feature", "geometry": {"type": "Point", "coordinates": [-89.3410293, 43.0923917]}, "properties": {"amenity": "public_bookcase", "brand": "Little Free Library", "brand:wikidata": "Q6650101", "name": "Little Free Library", "osm_id": 13835135463}}, {"type": "Feature", "geometry": {"type": "Point", "coordinates": [-89.3423715, 43.091019]}, "properties": {"amenity": "public_bookcase", "brand": "Little Free Library", "brand:wikidata": "Q6650101", "name": "Little Free Library", "osm_id": 13835135464}}, {"type": "Feature", "geometry": {"type": "Point", "coordinates": [-89.3423641, 43.0909209]}, "properties": {"amenity": "public_bookcase", "brand": "Little Free Library", "brand:wikidata": "Q6650101", "name": "Little Free Library", "osm_id": 13835135465}}, {"type": "Feature", "geometry": {"type": "Point", "coordinates": [-89.4190118, 43.0724119]}, "properties": {"amenity": "public_bookcase", "brand": "Little Free Library", "brand:wikidata": "Q6650101", "name": "Little Free Library", "osm_id": 13835486539}}, {"type": "Feature", "geometry": {"type": "Point", "coordinates": [-89.4202942, 43.0711876]}, "properties": {"amenity": "public_bookcase", "brand": "Little Free Library", "brand:wikidata": "Q6650101", "name": "Little Free Library", "osm_id": 13835486540}}, {"type": "Feature", "geometry": {"type": "Point", "coordinates": [-89.4266434, 43.0694731]}, "properties": {"amenity": "public_bookcase", "brand": "Little Free Library", "brand:wikidata": "Q6650101", "name": "Little Free Library", "osm_id": 13835486541}}, {"type": "Feature", "geometry": {"type": "Point", "coordinates": [-89.4170309, 43.0659933]}, "properties": {"amenity": "public_bookcase", "brand": "Little Free Library", "brand:wikidata": "Q6650101", "name": "Little Free Library", "osm_id": 13835486542}}, {"type": "Feature", "geometry": {"type": "Point", "coordinates": [-89.4176722, 43.0632581]}, "properties": {"amenity": "public_bookcase", "brand": "Little Free Library", "brand:wikidata": "Q6650101", "name": "Little Free Library", "osm_id": 13835486543}}, {"type": "Feature", "geometry": {"type": "Point", "coordinates": [-89.422513, 43.0645526]}, "properties": {"amenity": "public_bookcase", "brand": "Little Free Library", "brand:wikidata": "Q6650101", "name": "Little Free Library", "osm_id": 13835553365}}, {"type": "Feature", "geometry": {"type": "Point", "coordinates": [-89.4245883, 43.0655342]}, "properties": {"amenity": "public_bookcase", "brand": "Little Free Library", "brand:wikidata": "Q6650101", "name": "Little Free Library", "osm_id": 13835553366}}, {"type": "Feature", "geometry": {"type": "Point", "coordinates": [-89.4290943, 43.0573177]}, "properties": {"amenity": "public_bookcase", "brand": "Little Free Library", "brand:wikidata": "Q6650101", "name": "Little Free Library", "osm_id": 13835553367}}, {"type": "Feature", "geometry": {"type": "Point", "coordinates": [-89.4302904, 43.0570554]}, "properties": {"amenity": "public_bookcase", "brand": "Little Free Library", "brand:wikidata": "Q6650101", "name": "Little Free Library", "osm_id": 13835553368}}, {"type": "Feature", "geometry": {"type": "Point", "coordinates": [-89.4322183, 43.0576835]}, "properties": {"amenity": "public_bookcase", "brand": "Little Free Library", "brand:wikidata": "Q6650101", "name": "Little Free Library", "osm_id": 13835553369}}, {"type": "Feature", "geometry": {"type": "Point", "coordinates": [-89.4362926, 43.054461]}, "properties": {"amenity": "public_bookcase", "brand": "Little Free Library", "brand:wikidata": "Q6650101", "name": "Little Free Library", "osm_id": 13835553370}}, {"type": "Feature", "geometry": {"type": "Point", "coordinates": [-89.4319255, 43.0721829]}, "properties": {"amenity": "public_bookcase", "brand": "Little Free Library", "brand:wikidata": "Q6650101", "name": "Little Free Library", "osm_id": 13835581596}}, {"type": "Feature", "geometry": {"type": "Point", "coordinates": [-89.4319354, 43.0705262]}, "properties": {"amenity": "public_bookcase", "brand": "Little Free Library", "brand:wikidata": "Q6650101", "name": "Little Free Library", "osm_id": 13835581597}}, {"type": "Feature", "geometry": {"type": "Point", "coordinates": [-89.4349833, 43.0698962]}, "properties": {"amenity": "public_bookcase", "brand": "Little Free Library", "brand:wikidata": "Q6650101", "name": "Little Free Library", "osm_id": 13835581598}}, {"type": "Feature", "geometry": {"type": "Point", "coordinates": [-89.4379934, 43.0700842]}, "properties": {"amenity": "public_bookcase", "brand": "Little Free Library", "brand:wikidata": "Q6650101", "name": "Little Free Library", "osm_id": 13835581599}}, {"type": "Feature", "geometry": {"type": "Point", "coordinates": [-89.4458881, 43.0712348]}, "properties": {"amenity": "public_bookcase", "brand": "Little Free Library", "brand:wikidata": "Q6650101", "name": "Little Free Library", "osm_id": 13835581600}}, {"type": "Feature", "geometry": {"type": "Point", "coordinates": [-89.4481714, 43.0737588]}, "properties": {"amenity": "public_bookcase", "brand": "Little Free Library", "brand:wikidata": "Q6650101", "name": "Little Free Library", "osm_id": 13835591801}}, {"type": "Feature", "geometry": {"type": "Point", "coordinates": [-89.4498525, 43.0689699]}, "properties": {"amenity": "public_bookcase", "brand": "Little Free Library", "brand:wikidata": "Q6650101", "name": "Little Free Library", "osm_id": 13835591802}}, {"type": "Feature", "geometry": {"type": "Point", "coordinates": [-89.4500018, 43.0675173]}, "properties": {"amenity": "public_bookcase", "brand": "Little Free Library", "brand:wikidata": "Q6650101", "name": "Little Free Library", "osm_id": 13835591803}}, {"type": "Feature", "geometry": {"type": "Point", "coordinates": [-89.4462492, 43.0678654]}, "properties": {"amenity": "public_bookcase", "brand": "Little Free Library", "brand:wikidata": "Q6650101", "name": "Little Free Library", "osm_id": 13835591804}}, {"type": "Feature", "geometry": {"type": "Point", "coordinates": [-89.4467209, 43.0645222]}, "properties": {"amenity": "public_bookcase", "brand": "Little Free Library", "brand:wikidata": "Q6650101", "name": "Little Free Library", "osm_id": 13835848591}}, {"type": "Feature", "geometry": {"type": "Point", "coordinates": [-89.4478302, 43.0643676]}, "properties": {"amenity": "public_bookcase", "brand": "Little Free Library", "brand:wikidata": "Q6650101", "name": "Little Free Library", "osm_id": 13835848592}}, {"type": "Feature", "geometry": {"type": "Point", "coordinates": [-89.4456715, 43.0629445]}, "properties": {"amenity": "public_bookcase", "brand": "Little Free Library", "brand:wikidata": "Q6650101", "name": "Little Free Library", "osm_id": 13835848593}}, {"type": "Feature", "geometry": {"type": "Point", "coordinates": [-89.4415102, 43.0647519]}, "properties": {"amenity": "public_bookcase", "brand": "Little Free Library", "brand:wikidata": "Q6650101", "name": "Little Free Library", "osm_id": 13835848594}}, {"type": "Feature", "geometry": {"type": "Point", "coordinates": [-89.4383707, 43.0642186]}, "properties": {"amenity": "public_bookcase", "brand": "Little Free Library", "brand:wikidata": "Q6650101", "name": "Little Free Library", "osm_id": 13835848595}}, {"type": "Feature", "geometry": {"type": "Point", "coordinates": [-89.4373785, 43.0633344]}, "properties": {"amenity": "public_bookcase", "brand": "Little Free Library", "brand:wikidata": "Q6650101", "name": "Little Free Library", "osm_id": 13835848596}}, {"type": "Feature", "geometry": {"type": "Point", "coordinates": [-89.4372197, 43.0626589]}, "properties": {"amenity": "public_bookcase", "brand": "Little Free Library", "brand:wikidata": "Q6650101", "name": "Little Free Library", "osm_id": 13835848597}}, {"type": "Feature", "geometry": {"type": "Point", "coordinates": [-89.4399896, 43.0610171]}, "properties": {"amenity": "public_bookcase", "brand": "Little Free Library", "brand:wikidata": "Q6650101", "name": "Little Free Library", "osm_id": 13835848598}}, {"type": "Feature", "geometry": {"type": "Point", "coordinates": [-89.444297, 43.0597839]}, "properties": {"amenity": "public_bookcase", "brand": "Little Free Library", "brand:wikidata": "Q6650101", "name": "Little Free Library", "osm_id": 13835850729}}, {"type": "Feature", "geometry": {"type": "Point", "coordinates": [-89.4446431, 43.0575527]}, "properties": {"amenity": "public_bookcase", "brand": "Little Free Library", "brand:wikidata": "Q6650101", "name": "Little Free Library", "osm_id": 13835850730}}, {"type": "Feature", "geometry": {"type": "Point", "coordinates": [-89.446874, 43.0573217]}, "properties": {"amenity": "public_bookcase", "brand": "Little Free Library", "brand:wikidata": "Q6650101", "name": "Little Free Library", "osm_id": 13835850731}}, {"type": "Feature", "geometry": {"type": "Point", "coordinates": [-89.4468897, 43.0564637]}, "properties": {"amenity": "public_bookcase", "brand": "Little Free Library", "brand:wikidata": "Q6650101", "name": "Little Free Library", "osm_id": 13835850732}}, {"type": "Feature", "geometry": {"type": "Point", "coordinates": [-89.4403377, 43.0565323]}, "properties": {"amenity": "public_bookcase", "brand": "Little Free Library", "brand:wikidata": "Q6650101", "name": "Little Free Library", "osm_id": 13835850733}}, {"type": "Feature", "geometry": {"type": "Point", "coordinates": [-89.4480453, 43.0540146]}, "properties": {"amenity": "public_bookcase", "brand": "Little Free Library", "brand:wikidata": "Q6650101", "name": "Little Free Library", "osm_id": 13835850734}}, {"type": "Feature", "geometry": {"type": "Point", "coordinates": [-89.4457296, 43.0533039]}, "properties": {"amenity": "public_bookcase", "brand": "Little Free Library", "brand:wikidata": "Q6650101", "name": "Little Free Library", "osm_id": 13835953580}}, {"type": "Feature", "geometry": {"type": "Point", "coordinates": [-89.4467697, 43.0533419]}, "properties": {"amenity": "public_bookcase", "brand": "Little Free Library", "brand:wikidata": "Q6650101", "name": "Little Free Library", "osm_id": 13835953581}}, {"type": "Feature", "geometry": {"type": "Point", "coordinates": [-89.4498958, 43.0495433]}, "properties": {"amenity": "public_bookcase", "brand": "Little Free Library", "brand:wikidata": "Q6650101", "name": "Little Free Library", "osm_id": 13835953582}}, {"type": "Feature", "geometry": {"type": "Point", "coordinates": [-89.4491226, 43.050516]}, "properties": {"amenity": "public_bookcase", "brand": "Little Free Library", "brand:wikidata": "Q6650101", "name": "Little Free Library", "osm_id": 13835953583}}, {"type": "Feature", "geometry": {"type": "Point", "coordinates": [-89.4479745, 43.0503965]}, "properties": {"amenity": "public_bookcase", "brand": "Little Free Library", "brand:wikidata": "Q6650101", "name": "Little Free Library", "osm_id": 13835953584}}, {"type": "Feature", "geometry": {"type": "Point", "coordinates": [-89.4420675, 43.0413984]}, "properties": {"amenity": "public_bookcase", "brand": "Little Free Library", "brand:wikidata": "Q6650101", "name": "Little Free Library", "osm_id": 13835990998}}, {"type": "Feature", "geometry": {"type": "Point", "coordinates": [-89.4435387, 43.0427912]}, "properties": {"amenity": "public_bookcase", "brand": "Little Free Library", "brand:wikidata": "Q6650101", "name": "Little Free Library", "osm_id": 13835990999}}, {"type": "Feature", "geometry": {"type": "Point", "coordinates": [-89.4395002, 43.0460808]}, "properties": {"amenity": "public_bookcase", "brand": "Little Free Library", "brand:wikidata": "Q6650101", "name": "Little Free Library", "osm_id": 13836000266}}, {"type": "Feature", "geometry": {"type": "Point", "coordinates": [-89.4478696, 43.0422198]}, "properties": {"amenity": "public_bookcase", "brand": "Little Free Library", "brand:wikidata": "Q6650101", "name": "Little Free Library", "osm_id": 13836000267}}, {"type": "Feature", "geometry": {"type": "Point", "coordinates": [-89.4448195, 43.0409589]}, "properties": {"amenity": "public_bookcase", "brand": "Little Free Library", "brand:wikidata": "Q6650101", "name": "Little Free Library", "osm_id": 13836000268}}, {"type": "Feature", "geometry": {"type": "Point", "coordinates": [-89.4445881, 43.0411268]}, "properties": {"amenity": "public_bookcase", "brand": "Little Free Library", "brand:wikidata": "Q6650101", "name": "Little Free Library", "osm_id": 13836000269}}, {"type": "Feature", "geometry": {"type": "Point", "coordinates": [-89.439926, 43.0774162]}, "properties": {"amenity": "public_bookcase", "brand": "Little Free Library", "brand:wikidata": "Q6650101", "name": "Little Free Library", "osm_id": 13836115471}}, {"type": "Feature", "geometry": {"type": "Point", "coordinates": [-89.440239, 43.076049]}, "properties": {"amenity": "public_bookcase", "brand": "Little Free Library", "brand:wikidata": "Q6650101", "name": "Little Free Library", "osm_id": 13836115472}}, {"type": "Feature", "geometry": {"type": "Point", "coordinates": [-89.438166, 43.0766656]}, "properties": {"amenity": "public_bookcase", "brand": "Little Free Library", "brand:wikidata": "Q6650101", "name": "Little Free Library", "osm_id": 13836115473}}, {"type": "Feature", "geometry": {"type": "Point", "coordinates": [-89.4365945, 43.075035]}, "properties": {"amenity": "public_bookcase", "brand": "Little Free Library", "brand:wikidata": "Q6650101", "name": "Little Free Library", "osm_id": 13836115474}}, {"type": "Feature", "geometry": {"type": "Point", "coordinates": [-89.4316114, 43.0755553]}, "properties": {"amenity": "public_bookcase", "brand": "Little Free Library", "brand:wikidata": "Q6650101", "name": "Little Free Library", "osm_id": 13836129419}}, {"type": "Feature", "geometry": {"type": "Point", "coordinates": [-89.4343693, 43.0786283]}, "properties": {"amenity": "public_bookcase", "brand": "Little Free Library", "brand:wikidata": "Q6650101", "name": "Little Free Library", "osm_id": 13836129420}}, {"type": "Feature", "geometry": {"type": "Point", "coordinates": [-89.436518, 43.0881881]}, "properties": {"amenity": "public_bookcase", "brand": "Little Free Library", "brand:wikidata": "Q6650101", "name": "Little Free Library", "osm_id": 13863609481}}, {"type": "Feature", "geometry": {"type": "Point", "coordinates": [-89.4537572, 43.0801499]}, "properties": {"amenity": "public_bookcase", "brand": "Little Free Library", "brand:wikidata": "Q6650101", "name": "Little Free Library", "osm_id": 13863609482}}, {"type": "Feature", "geometry": {"type": "Point", "coordinates": [-89.4960473, 43.1258671]}, "properties": {"amenity": "public_bookcase", "brand": "Little Free Library", "brand:wikidata": "Q6650101", "name": "Little Free Library", "osm_id": 13863627707}}, {"type": "Feature", "geometry": {"type": "Point", "coordinates": [-89.5002539, 43.1180091]}, "properties": {"amenity": "public_bookcase", "brand": "Little Free Library", "brand:wikidata": "Q6650101", "name": "Little Free Library", "osm_id": 13863627708}}, {"type": "Feature", "geometry": {"type": "Point", "coordinates": [-89.4927691, 43.1145954]}, "properties": {"amenity": "public_bookcase", "brand": "Little Free Library", "brand:wikidata": "Q6650101", "name": "Little Free Library", "osm_id": 13863627709}}, {"type": "Feature", "geometry": {"type": "Point", "coordinates": [-89.5025051, 43.114473]}, "properties": {"amenity": "public_bookcase", "brand": "Little Free Library", "brand:wikidata": "Q6650101", "name": "Little Free Library", "osm_id": 13863627710}}, {"type": "Feature", "geometry": {"type": "Point", "coordinates": [-89.4988612, 43.1132769]}, "properties": {"amenity": "public_bookcase", "brand": "Little Free Library", "brand:wikidata": "Q6650101", "name": "Little Free Library", "osm_id": 13863627711}}, {"type": "Feature", "geometry": {"type": "Point", "coordinates": [-89.4974453, 43.1068636]}, "properties": {"amenity": "public_bookcase", "brand": "Little Free Library", "brand:wikidata": "Q6650101", "name": "Little Free Library", "osm_id": 13863627712}}, {"type": "Feature", "geometry": {"type": "Point", "coordinates": [-89.5051441, 43.1122615]}, "properties": {"amenity": "public_bookcase", "brand": "Little Free Library", "brand:wikidata": "Q6650101", "name": "Little Free Library", "osm_id": 13863783725}}, {"type": "Feature", "geometry": {"type": "Point", "coordinates": [-89.5093544, 43.1102675]}, "properties": {"amenity": "public_bookcase", "brand": "Little Free Library", "brand:wikidata": "Q6650101", "name": "Little Free Library", "osm_id": 13863783726}}, {"type": "Feature", "geometry": {"type": "Point", "coordinates": [-89.5088132, 43.1082571]}, "properties": {"amenity": "public_bookcase", "brand": "Little Free Library", "brand:wikidata": "Q6650101", "name": "Little Free Library", "osm_id": 13863783727}}, {"type": "Feature", "geometry": {"type": "Point", "coordinates": [-89.4805649, 43.1097033]}, "properties": {"amenity": "public_bookcase", "brand": "Little Free Library", "brand:wikidata": "Q6650101", "name": "Little Free Library", "osm_id": 13863783728}}, {"type": "Feature", "geometry": {"type": "Point", "coordinates": [-89.4781836, 43.1095623]}, "properties": {"amenity": "public_bookcase", "brand": "Little Free Library", "brand:wikidata": "Q6650101", "name": "Little Free Library", "osm_id": 13863783729}}, {"type": "Feature", "geometry": {"type": "Point", "coordinates": [-89.4757261, 43.1173022]}, "properties": {"amenity": "public_bookcase", "brand": "Little Free Library", "brand:wikidata": "Q6650101", "name": "Little Free Library", "osm_id": 13863783730}}, {"type": "Feature", "geometry": {"type": "Point", "coordinates": [-89.5124969, 43.0899522]}, "properties": {"amenity": "public_bookcase", "brand": "Little Free Library", "brand:wikidata": "Q6650101", "name": "Little Free Library", "osm_id": 13863846394}}, {"type": "Feature", "geometry": {"type": "Point", "coordinates": [-89.5165583, 43.0883081]}, "properties": {"amenity": "public_bookcase", "brand": "Little Free Library", "brand:wikidata": "Q6650101", "name": "Little Free Library", "osm_id": 13863846395}}, {"type": "Feature", "geometry": {"type": "Point", "coordinates": [-89.5151125, 43.0829033]}, "properties": {"amenity": "public_bookcase", "brand": "Little Free Library", "brand:wikidata": "Q6650101", "name": "Little Free Library", "osm_id": 13863846396}}, {"type": "Feature", "geometry": {"type": "Point", "coordinates": [-89.4927976, 43.0769675]}, "properties": {"amenity": "public_bookcase", "brand": "Little Free Library", "brand:wikidata": "Q6650101", "name": "Little Free Library", "osm_id": 13863846397}}, {"type": "Feature", "geometry": {"type": "Point", "coordinates": [-89.4939662, 43.0746836]}, "properties": {"amenity": "public_bookcase", "brand": "Little Free Library", "brand:wikidata": "Q6650101", "name": "Little Free Library", "osm_id": 13863846398}}, {"type": "Feature", "geometry": {"type": "Point", "coordinates": [-89.4899387, 43.0750215]}, "properties": {"amenity": "public_bookcase", "brand": "Little Free Library", "brand:wikidata": "Q6650101", "name": "Little Free Library", "osm_id": 13863846399}}, {"type": "Feature", "geometry": {"type": "Point", "coordinates": [-89.4693074, 43.1095005]}, "properties": {"amenity": "public_bookcase", "brand": "Little Free Library", "brand:wikidata": "Q6650101", "name": "Little Free Library", "osm_id": 13863847623}}, {"type": "Feature", "geometry": {"type": "Point", "coordinates": [-89.5104312, 43.0999498]}, "properties": {"amenity": "public_bookcase", "brand": "Little Free Library", "brand:wikidata": "Q6650101", "name": "Little Free Library", "osm_id": 13864034891}}, {"type": "Feature", "geometry": {"type": "Point", "coordinates": [-89.5004832, 43.1001789]}, "properties": {"amenity": "public_bookcase", "brand": "Little Free Library", "brand:wikidata": "Q6650101", "name": "Little Free Library", "osm_id": 13864034892}}, {"type": "Feature", "geometry": {"type": "Point", "coordinates": [-89.4873155, 43.1003181]}, "properties": {"amenity": "public_bookcase", "brand": "Little Free Library", "brand:wikidata": "Q6650101", "name": "Little Free Library", "osm_id": 13864034893}}, {"type": "Feature", "geometry": {"type": "Point", "coordinates": [-89.5029221, 43.0962277]}, "properties": {"amenity": "public_bookcase", "brand": "Little Free Library", "brand:wikidata": "Q6650101", "name": "Little Free Library", "osm_id": 13864034894}}, {"type": "Feature", "geometry": {"type": "Point", "coordinates": [-89.4950082, 43.0907018]}, "properties": {"amenity": "public_bookcase", "brand": "Little Free Library", "brand:wikidata": "Q6650101", "name": "Little Free Library", "osm_id": 13864222038}}, {"type": "Feature", "geometry": {"type": "Point", "coordinates": [-89.4938872, 43.0921192]}, "properties": {"amenity": "public_bookcase", "brand": "Little Free Library", "brand:wikidata": "Q6650101", "name": "Little Free Library", "osm_id": 13864222039}}, {"type": "Feature", "geometry": {"type": "Point", "coordinates": [-89.5101491, 43.0731026]}, "properties": {"amenity": "public_bookcase", "brand": "Little Free Library", "brand:wikidata": "Q6650101", "name": "Little Free Library", "osm_id": 13894839727}}, {"type": "Feature", "geometry": {"type": "Point", "coordinates": [-89.509062, 43.072576]}, "properties": {"amenity": "public_bookcase", "brand": "Little Free Library", "brand:wikidata": "Q6650101", "name": "Little Free Library", "osm_id": 13894839728}}, {"type": "Feature", "geometry": {"type": "Point", "coordinates": [-89.5146271, 43.0725195]}, "properties": {"amenity": "public_bookcase", "brand": "Little Free Library", "brand:wikidata": "Q6650101", "osm_id": 13894839729}}, {"type": "Feature", "geometry": {"type": "Point", "coordinates": [-89.5201424, 43.0717918]}, "properties": {"amenity": "public_bookcase", "brand": "Little Free Library", "brand:wikidata": "Q6650101", "name": "Little Free Library", "osm_id": 13894839730}}, {"type": "Feature", "geometry": {"type": "Point", "coordinates": [-89.516364, 43.0681429]}, "properties": {"amenity": "public_bookcase", "brand": "Little Free Library", "brand:wikidata": "Q6650101", "name": "Little Free Library", "osm_id": 13894839731}}, {"type": "Feature", "geometry": {"type": "Point", "coordinates": [-89.5185144, 43.0658211]}, "properties": {"amenity": "public_bookcase", "brand": "Little Free Library", "brand:wikidata": "Q6650101", "name": "Little Free Library", "osm_id": 13894839732}}, {"type": "Feature", "geometry": {"type": "Point", "coordinates": [-89.5018095, 43.0662454]}, "properties": {"amenity": "public_bookcase", "brand": "Little Free Library", "brand:wikidata": "Q6650101", "name": "Little Free Library", "osm_id": 13894853460}}, {"type": "Feature", "geometry": {"type": "Point", "coordinates": [-89.4989769, 43.0706252]}, "properties": {"amenity": "public_bookcase", "brand": "Little Free Library", "brand:wikidata": "Q6650101", "name": "Little Free Library", "osm_id": 13894853461}}, {"type": "Feature", "geometry": {"type": "Point", "coordinates": [-89.4954443, 43.0660163]}, "properties": {"amenity": "public_bookcase", "brand": "Little Free Library", "brand:wikidata": "Q6650101", "name": "Little Free Library", "osm_id": 13894853462}}, {"type": "Feature", "geometry": {"type": "Point", "coordinates": [-89.4933307, 43.0699036]}, "properties": {"amenity": "public_bookcase", "brand": "Little Free Library", "brand:wikidata": "Q6650101", "name": "Little Free Library", "osm_id": 13894853463}}, {"type": "Feature", "geometry": {"type": "Point", "coordinates": [-89.4804338, 43.05061]}, "properties": {"amenity": "public_bookcase", "brand": "Little Free Library", "brand:wikidata": "Q6650101", "name": "Little Free Library", "osm_id": 13894867948}}, {"type": "Feature", "geometry": {"type": "Point", "coordinates": [-89.4769139, 43.080926]}, "properties": {"amenity": "public_bookcase", "brand": "Little Free Library", "brand:wikidata": "Q6650101", "name": "Little Free Library", "osm_id": 13894867949}}, {"type": "Feature", "geometry": {"type": "Point", "coordinates": [-89.4684751, 43.0778826]}, "properties": {"amenity": "public_bookcase", "brand": "Little Free Library", "brand:wikidata": "Q6650101", "name": "Little Free Library", "osm_id": 13894867950}}, {"type": "Feature", "geometry": {"type": "Point", "coordinates": [-89.4661616, 43.077338]}, "properties": {"amenity": "public_bookcase", "brand": "Little Free Library", "brand:wikidata": "Q6650101", "name": "Little Free Library", "osm_id": 13894867951}}, {"type": "Feature", "geometry": {"type": "Point", "coordinates": [-89.4925087, 43.061151]}, "properties": {"amenity": "public_bookcase", "brand": "Little Free Library", "brand:wikidata": "Q6650101", "name": "Little Free Library", "osm_id": 13894888437}}, {"type": "Feature", "geometry": {"type": "Point", "coordinates": [-89.4717544, 43.0507648]}, "properties": {"amenity": "public_bookcase", "brand": "Little Free Library", "brand:wikidata": "Q6650101", "name": "Little Free Library", "osm_id": 13894888438}}, {"type": "Feature", "geometry": {"type": "Point", "coordinates": [-89.4699673, 43.048289]}, "properties": {"amenity": "public_bookcase", "brand": "Little Free Library", "brand:wikidata": "Q6650101", "name": "Little Free Library", "osm_id": 13894888439}}, {"type": "Feature", "geometry": {"type": "Point", "coordinates": [-89.466391, 43.0534811]}, "properties": {"amenity": "public_bookcase", "brand": "Little Free Library", "brand:wikidata": "Q6650101", "name": "Little Free Library", "osm_id": 13894888440}}, {"type": "Feature", "geometry": {"type": "Point", "coordinates": [-89.4712354, 43.0647906]}, "properties": {"amenity": "public_bookcase", "brand": "Little Free Library", "brand:wikidata": "Q6650101", "name": "Little Free Library", "osm_id": 13894889740}}, {"type": "Feature", "geometry": {"type": "Point", "coordinates": [-89.4691697, 43.0679089]}, "properties": {"amenity": "public_bookcase", "brand": "Little Free Library", "brand:wikidata": "Q6650101", "name": "Little Free Library", "osm_id": 13894889741}}, {"type": "Feature", "geometry": {"type": "Point", "coordinates": [-89.4640573, 43.0638369]}, "properties": {"amenity": "public_bookcase", "brand": "Little Free Library", "brand:wikidata": "Q6650101", "name": "Little Free Library", "osm_id": 13894889742}}, {"type": "Feature", "geometry": {"type": "Point", "coordinates": [-89.3539927, 43.10035]}, "properties": {"amenity": "public_bookcase", "brand": "Little Free Library", "brand:wikidata": "Q6650101", "name": "Little Free Library", "osm_id": 13895851925}}, {"type": "Feature", "geometry": {"type": "Point", "coordinates": [-89.3547381, 43.1014025]}, "properties": {"amenity": "public_bookcase", "brand": "Little Free Library", "brand:wikidata": "Q6650101", "name": "Little Free Library", "osm_id": 13895851926}}, {"type": "Feature", "geometry": {"type": "Point", "coordinates": [-89.3524033, 43.1044518]}, "properties": {"amenity": "public_bookcase", "brand": "Little Free Library", "brand:wikidata": "Q6650101", "name": "Little Free Library", "osm_id": 13895851927}}, {"type": "Feature", "geometry": {"type": "Point", "coordinates": [-89.3469467, 43.1098987]}, "properties": {"amenity": "public_bookcase", "brand": "Little Free Library", "brand:wikidata": "Q6650101", "name": "Little Free Library", "osm_id": 13895851928}}, {"type": "Feature", "geometry": {"type": "Point", "coordinates": [-89.3403366, 43.1076583]}, "properties": {"amenity": "public_bookcase", "brand": "Little Free Library", "brand:wikidata": "Q6650101", "name": "Little Free Library", "osm_id": 13895851929}}, {"type": "Feature", "geometry": {"type": "Point", "coordinates": [-89.3344839, 43.1043149]}, "properties": {"amenity": "public_bookcase", "brand": "Little Free Library", "brand:wikidata": "Q6650101", "name": "Little Free Library", "osm_id": 13895851930}}, {"type": "Feature", "geometry": {"type": "Point", "coordinates": [-89.3629989, 43.105562]}, "properties": {"amenity": "public_bookcase", "brand": "Little Free Library", "brand:wikidata": "Q6650101", "name": "Little Free Library", "osm_id": 13895851931}}, {"type": "Feature", "geometry": {"type": "Point", "coordinates": [-89.3640557, 43.1082078]}, "properties": {"amenity": "public_bookcase", "brand": "Little Free Library", "brand:wikidata": "Q6650101", "name": "Little Free Library", "osm_id": 13895851932}}, {"type": "Feature", "geometry": {"type": "Point", "coordinates": [-89.3685867, 43.1119761]}, "properties": {"amenity": "public_bookcase", "brand": "Little Free Library", "brand:wikidata": "Q6650101", "name": "Little Free Library", "osm_id": 13895851933}}, {"type": "Feature", "geometry": {"type": "Point", "coordinates": [-89.357722, 43.1164493]}, "properties": {"amenity": "public_bookcase", "brand": "Little Free Library", "brand:wikidata": "Q6650101", "name": "Little Free Library", "osm_id": 13895904209}}, {"type": "Feature", "geometry": {"type": "Point", "coordinates": [-89.3635763, 43.1193978]}, "properties": {"amenity": "public_bookcase", "brand": "Little Free Library", "brand:wikidata": "Q6650101", "name": "Little Free Library", "osm_id": 13895904210}}, {"type": "Feature", "geometry": {"type": "Point", "coordinates": [-89.3673045, 43.1172089]}, "properties": {"amenity": "public_bookcase", "brand": "Little Free Library", "brand:wikidata": "Q6650101", "name": "Little Free Library", "osm_id": 13895904211}}, {"type": "Feature", "geometry": {"type": "Point", "coordinates": [-89.3631925, 43.1220566]}, "properties": {"amenity": "public_bookcase", "brand": "Little Free Library", "brand:wikidata": "Q6650101", "name": "Little Free Library", "osm_id": 13895904212}}, {"type": "Feature", "geometry": {"type": "Point", "coordinates": [-89.3676652, 43.1215502]}, "properties": {"amenity": "public_bookcase", "brand": "Little Free Library", "brand:wikidata": "Q6650101", "name": "Little Free Library", "osm_id": 13895904213}}, {"type": "Feature", "geometry": {"type": "Point", "coordinates": [-89.3599396, 43.1298911]}, "properties": {"amenity": "public_bookcase", "brand": "Little Free Library", "brand:wikidata": "Q6650101", "name": "Little Free Library", "osm_id": 13895914574}}, {"type": "Feature", "geometry": {"type": "Point", "coordinates": [-89.323969, 43.1139407]}, "properties": {"amenity": "public_bookcase", "brand": "Little Free Library", "brand:wikidata": "Q6650101", "name": "Little Free Library", "osm_id": 13895914575}}, {"type": "Feature", "geometry": {"type": "Point", "coordinates": [-89.3308888, 43.113119]}, "properties": {"amenity": "public_bookcase", "brand": "Little Free Library", "brand:wikidata": "Q6650101", "name": "Little Free Library", "osm_id": 13895914576}}, {"type": "Feature", "geometry": {"type": "Point", "coordinates": [-89.3449576, 43.0984571]}, "properties": {"amenity": "public_bookcase", "brand": "Little Free Library", "brand:wikidata": "Q6650101", "name": "Little Free Library", "osm_id": 13895921793}}, {"type": "Feature", "geometry": {"type": "Point", "coordinates": [-89.34068, 43.0985183]}, "properties": {"amenity": "public_bookcase", "brand": "Little Free Library", "brand:wikidata": "Q6650101", "name": "Little Free Library", "osm_id": 13895921794}}, {"type": "Feature", "geometry": {"type": "Point", "coordinates": [-89.3369895, 43.0967026]}, "properties": {"amenity": "public_bookcase", "brand": "Little Free Library", "brand:wikidata": "Q6650101", "name": "Little Free Library", "osm_id": 13895921795}}, {"type": "Feature", "geometry": {"type": "Point", "coordinates": [-89.2916753, 43.1161667]}, "properties": {"amenity": "public_bookcase", "brand": "Little Free Library", "brand:wikidata": "Q6650101", "name": "Little Free Library", "osm_id": 13895921796}}, {"type": "Feature", "geometry": {"type": "Point", "coordinates": [-89.2960345, 43.1116981]}, "properties": {"amenity": "public_bookcase", "brand": "Little Free Library", "brand:wikidata": "Q6650101", "name": "Little Free Library", "osm_id": 13895921797}}, {"type": "Feature", "geometry": {"type": "Point", "coordinates": [-89.3129567, 43.1294487]}, "properties": {"amenity": "public_bookcase", "brand": "Little Free Library", "brand:wikidata": "Q6650101", "name": "Little Free Library", "osm_id": 13895921798}}, {"type": "Feature", "geometry": {"type": "Point", "coordinates": [-89.311213, 43.1319817]}, "properties": {"amenity": "public_bookcase", "brand": "Little Free Library", "brand:wikidata": "Q6650101", "name": "Little Free Library", "osm_id": 13895921799}}, {"type": "Feature", "geometry": {"type": "Point", "coordinates": [-89.3079405, 43.1327138]}, "properties": {"amenity": "public_bookcase", "brand": "Little Free Library", "brand:wikidata": "Q6650101", "name": "Little Free Library", "osm_id": 13895921800}}, {"type": "Feature", "geometry": {"type": "Point", "coordinates": [-89.3102215, 43.1383524]}, "properties": {"amenity": "public_bookcase", "brand": "Little Free Library", "brand:wikidata": "Q6650101", "name": "Little Free Library", "osm_id": 13896006001}}, {"type": "Feature", "geometry": {"type": "Point", "coordinates": [-89.3097117, 43.1433601]}, "properties": {"amenity": "public_bookcase", "brand": "Little Free Library", "brand:wikidata": "Q6650101", "name": "Little Free Library", "osm_id": 13896006002}}, {"type": "Feature", "geometry": {"type": "Point", "coordinates": [-89.3596344, 43.1358374]}, "properties": {"amenity": "public_bookcase", "brand": "Little Free Library", "brand:wikidata": "Q6650101", "name": "Little Free Library", "osm_id": 13896786523}}, {"type": "Feature", "geometry": {"type": "Point", "coordinates": [-89.3618248, 43.135319]}, "properties": {"amenity": "public_bookcase", "brand": "Little Free Library", "brand:wikidata": "Q6650101", "name": "Little Free Library", "osm_id": 13896786524}}, {"type": "Feature", "geometry": {"type": "Point", "coordinates": [-89.3572268, 43.1417268]}, "properties": {"amenity": "public_bookcase", "brand": "Little Free Library", "brand:wikidata": "Q6650101", "name": "Little Free Library", "osm_id": 13896786525}}, {"type": "Feature", "geometry": {"type": "Point", "coordinates": [-89.381791, 43.1364066]}, "properties": {"amenity": "public_bookcase", "brand": "Little Free Library", "brand:wikidata": "Q6650101", "name": "Little Free Library", "osm_id": 13896786526}}, {"type": "Feature", "geometry": {"type": "Point", "coordinates": [-89.3854674, 43.140201]}, "properties": {"amenity": "public_bookcase", "brand": "Little Free Library", "brand:wikidata": "Q6650101", "name": "Little Free Library", "osm_id": 13896786527}}, {"type": "Feature", "geometry": {"type": "Point", "coordinates": [-89.4004151, 43.1367575]}, "properties": {"amenity": "public_bookcase", "brand": "Little Free Library", "brand:wikidata": "Q6650101", "name": "Little Free Library", "osm_id": 13896786528}}, {"type": "Feature", "geometry": {"type": "Point", "coordinates": [-89.3991464, 43.1434002]}, "properties": {"amenity": "public_bookcase", "brand": "Little Free Library", "brand:wikidata": "Q6650101", "name": "Little Free Library", "osm_id": 13896786529}}, {"type": "Feature", "geometry": {"type": "Point", "coordinates": [-89.3880874, 43.1429683]}, "properties": {"amenity": "public_bookcase", "brand": "Little Free Library", "brand:wikidata": "Q6650101", "name": "Little Free Library", "osm_id": 13896786530}}, {"type": "Feature", "geometry": {"type": "Point", "coordinates": [-89.3826604, 43.145782]}, "properties": {"amenity": "public_bookcase", "brand": "Little Free Library", "brand:wikidata": "Q6650101", "name": "Little Free Library", "osm_id": 13896786531}}, {"type": "Feature", "geometry": {"type": "Point", "coordinates": [-89.3689753, 43.1426284]}, "properties": {"amenity": "public_bookcase", "brand": "Little Free Library", "brand:wikidata": "Q6650101", "name": "Little Free Library", "osm_id": 13896786532}}, {"type": "Feature", "geometry": {"type": "Point", "coordinates": [-89.3803092, 43.1534219]}, "properties": {"amenity": "public_bookcase", "brand": "Little Free Library", "brand:wikidata": "Q6650101", "name": "Little Free Library", "osm_id": 13896786533}}, {"type": "Feature", "geometry": {"type": "Point", "coordinates": [-89.3734676, 43.1530513]}, "properties": {"amenity": "public_bookcase", "brand": "Little Free Library", "brand:wikidata": "Q6650101", "name": "Little Free Library", "osm_id": 13896786534}}, {"type": "Feature", "geometry": {"type": "Point", "coordinates": [-89.3627896, 43.1518845]}, "properties": {"amenity": "public_bookcase", "brand": "Little Free Library", "brand:wikidata": "Q6650101", "name": "Little Free Library", "osm_id": 13896786535}}, {"type": "Feature", "geometry": {"type": "Point", "coordinates": [-89.2892653, 43.1446247]}, "properties": {"amenity": "public_bookcase", "brand": "Little Free Library", "brand:wikidata": "Q6650101", "name": "Little Free Library", "osm_id": 13896975889}}, {"type": "Feature", "geometry": {"type": "Point", "coordinates": [-89.3313985, 43.0961485]}, "properties": {"amenity": "public_bookcase", "brand": "Little Free Library", "brand:wikidata": "Q6650101", "name": "Little Free Library", "osm_id": 13896975890}}, {"type": "Feature", "geometry": {"type": "Point", "coordinates": [-89.3288547, 43.0972693]}, "properties": {"amenity": "public_bookcase", "brand": "Little Free Library", "brand:wikidata": "Q6650101", "name": "Little Free Library", "osm_id": 13896975891}}, {"type": "Feature", "geometry": {"type": "Point", "coordinates": [-89.3278905, 43.0972413]}, "properties": {"amenity": "public_bookcase", "brand": "Little Free Library", "brand:wikidata": "Q6650101", "name": "Little Free Library", "osm_id": 13896975892}}, {"type": "Feature", "geometry": {"type": "Point", "coordinates": [-89.3211708, 43.0952475]}, "properties": {"amenity": "public_bookcase", "brand": "Little Free Library", "brand:wikidata": "Q6650101", "name": "Little Free Library", "osm_id": 13896975893}}, {"type": "Feature", "geometry": {"type": "Point", "coordinates": [-89.3024421, 43.0895426]}, "properties": {"amenity": "public_bookcase", "brand": "Little Free Library", "brand:wikidata": "Q6650101", "name": "Little Free Library", "osm_id": 13897120230}}, {"type": "Feature", "geometry": {"type": "Point", "coordinates": [-89.2988555, 43.0886296]}, "properties": {"amenity": "public_bookcase", "brand": "Little Free Library", "brand:wikidata": "Q6650101", "name": "Little Free Library", "osm_id": 13897120231}}, {"type": "Feature", "geometry": {"type": "Point", "coordinates": [-89.2992126, 43.0866544]}, "properties": {"amenity": "public_bookcase", "brand": "Little Free Library", "brand:wikidata": "Q6650101", "name": "Little Free Library", "osm_id": 13897120232}}, {"type": "Feature", "geometry": {"type": "Point", "coordinates": [-89.2941586, 43.0903322]}, "properties": {"amenity": "public_bookcase", "brand": "Little Free Library", "brand:wikidata": "Q6650101", "name": "Little Free Library", "osm_id": 13897120233}}, {"type": "Feature", "geometry": {"type": "Point", "coordinates": [-89.287771, 43.0877703]}, "properties": {"amenity": "public_bookcase", "brand": "Little Free Library", "brand:wikidata": "Q6650101", "name": "Little Free Library", "osm_id": 13897120234}}, {"type": "Feature", "geometry": {"type": "Point", "coordinates": [-89.3252885, 43.0907762]}, "properties": {"amenity": "public_bookcase", "brand": "Little Free Library", "brand:wikidata": "Q6650101", "name": "Little Free Library", "osm_id": 13897124449}}, {"type": "Feature", "geometry": {"type": "Point", "coordinates": [-89.32831, 43.0898343]}, "properties": {"amenity": "public_bookcase", "brand": "Little Free Library", "brand:wikidata": "Q6650101", "name": "Little Free Library", "osm_id": 13897124450}}, {"type": "Feature", "geometry": {"type": "Point", "coordinates": [-89.3269924, 43.088883]}, "properties": {"amenity": "public_bookcase", "brand": "Little Free Library", "brand:wikidata": "Q6650101", "name": "Little Free Library", "osm_id": 13897124451}}, {"type": "Feature", "geometry": {"type": "Point", "coordinates": [-89.3165737, 43.091289]}, "properties": {"amenity": "public_bookcase", "brand": "Little Free Library", "brand:wikidata": "Q6650101", "name": "Little Free Library", "osm_id": 13897124452}}, {"type": "Feature", "geometry": {"type": "Point", "coordinates": [-89.3060018, 43.1031225]}, "properties": {"amenity": "public_bookcase", "brand": "Little Free Library", "brand:wikidata": "Q6650101", "name": "Little Free Library", "osm_id": 13897124453}}, {"type": "Feature", "geometry": {"type": "Point", "coordinates": [-89.3068362, 43.0980143]}, "properties": {"amenity": "public_bookcase", "brand": "Little Free Library", "brand:wikidata": "Q6650101", "name": "Little Free Library", "osm_id": 13897124454}}, {"type": "Feature", "geometry": {"type": "Point", "coordinates": [-89.2910337, 43.0970253]}, "properties": {"amenity": "public_bookcase", "brand": "Little Free Library", "brand:wikidata": "Q6650101", "name": "Little Free Library", "osm_id": 13897124455}}, {"type": "Feature", "geometry": {"type": "Point", "coordinates": [-89.2883411, 43.0824867]}, "properties": {"amenity": "public_bookcase", "brand": "Little Free Library", "brand:wikidata": "Q6650101", "name": "Little Free Library", "osm_id": 13897203033}}, {"type": "Feature", "geometry": {"type": "Point", "coordinates": [-89.2925767, 43.0815862]}, "properties": {"amenity": "public_bookcase", "brand": "Little Free Library", "brand:wikidata": "Q6650101", "name": "Little Free Library", "osm_id": 13897203034}}, {"type": "Feature", "geometry": {"type": "Point", "coordinates": [-89.2968576, 43.0780582]}, "properties": {"amenity": "public_bookcase", "brand": "Little Free Library", "brand:wikidata": "Q6650101", "name": "Little Free Library", "osm_id": 13897203035}}, {"type": "Feature", "geometry": {"type": "Point", "coordinates": [-89.2997806, 43.0768489]}, "properties": {"amenity": "public_bookcase", "brand": "Little Free Library", "brand:wikidata": "Q6650101", "name": "Little Free Library", "osm_id": 13897203036}}, {"type": "Feature", "geometry": {"type": "Point", "coordinates": [-89.3046743, 43.0747234]}, "properties": {"amenity": "public_bookcase", "brand": "Little Free Library", "brand:wikidata": "Q6650101", "name": "Little Free Library", "osm_id": 13897203037}}, {"type": "Feature", "geometry": {"type": "Point", "coordinates": [-89.301071, 43.0734594]}, "properties": {"amenity": "public_bookcase", "brand": "Little Free Library", "brand:wikidata": "Q6650101", "name": "Little Free Library", "osm_id": 13897203038}}, {"type": "Feature", "geometry": {"type": "Point", "coordinates": [-89.2935237, 43.074761]}, "properties": {"amenity": "public_bookcase", "brand": "Little Free Library", "brand:wikidata": "Q6650101", "name": "Little Free Library", "osm_id": 13897203039}}, {"type": "Feature", "geometry": {"type": "Point", "coordinates": [-89.2927972, 43.0722399]}, "properties": {"amenity": "public_bookcase", "brand": "Little Free Library", "brand:wikidata": "Q6650101", "name": "Little Free Library", "osm_id": 13897203040}}, {"type": "Feature", "geometry": {"type": "Point", "coordinates": [-89.2957688, 43.0687334]}, "properties": {"amenity": "public_bookcase", "brand": "Little Free Library", "brand:wikidata": "Q6650101", "name": "Little Free Library", "osm_id": 13897203041}}, {"type": "Feature", "geometry": {"type": "Point", "coordinates": [-89.3221848, 43.0827373]}, "properties": {"amenity": "public_bookcase", "brand": "Little Free Library", "brand:wikidata": "Q6650101", "name": "Little Free Library", "osm_id": 13897221309}}, {"type": "Feature", "geometry": {"type": "Point", "coordinates": [-89.3128533, 43.0788311]}, "properties": {"amenity": "public_bookcase", "brand": "Little Free Library", "brand:wikidata": "Q6650101", "name": "Little Free Library", "osm_id": 13897221310}}, {"type": "Feature", "geometry": {"type": "Point", "coordinates": [-89.3941942, 43.0673667]}, "properties": {"amenity": "public_bookcase", "brand": "Little Free Library", "brand:wikidata": "Q6650101", "osm_id": 13906130196}}, {"type": "Feature", "geometry": {"type": "Point", "coordinates": [-89.3284343, 43.0713915]}, "properties": {"amenity": "public_bookcase", "brand": "Little Free Library", "brand:wikidata": "Q6650101", "name": "Little Free Library", "osm_id": 13908471717}}, {"type": "Feature", "geometry": {"type": "Point", "coordinates": [-89.3294584, 43.0716327]}, "properties": {"amenity": "public_bookcase", "brand": "Little Free Library", "brand:wikidata": "Q6650101", "name": "Little Free Library", "osm_id": 13908471718}}, {"type": "Feature", "geometry": {"type": "Point", "coordinates": [-89.3314595, 43.071808]}, "properties": {"amenity": "public_bookcase", "brand": "Little Free Library", "brand:wikidata": "Q6650101", "name": "Little Free Library", "osm_id": 13908471719}}, {"type": "Feature", "geometry": {"type": "Point", "coordinates": [-89.33372, 43.0719095]}, "properties": {"amenity": "public_bookcase", "brand": "Little Free Library", "brand:wikidata": "Q6650101", "name": "Little Free Library", "osm_id": 13908471720}}, {"type": "Feature", "geometry": {"type": "Point", "coordinates": [-89.3357377, 43.0714544]}, "properties": {"amenity": "public_bookcase", "brand": "Little Free Library", "brand:wikidata": "Q6650101", "name": "Little Free Library", "osm_id": 13908471721}}, {"type": "Feature", "geometry": {"type": "Point", "coordinates": [-89.316822, 43.0772194]}, "properties": {"amenity": "public_bookcase", "brand": "Little Free Library", "brand:wikidata": "Q6650101", "name": "Little Free Library", "osm_id": 13908474267}}, {"type": "Feature", "geometry": {"type": "Point", "coordinates": [-89.3130445, 43.0743212]}, "properties": {"amenity": "public_bookcase", "brand": "Little Free Library", "brand:wikidata": "Q6650101", "name": "Little Free Library", "osm_id": 13908474268}}, {"type": "Feature", "geometry": {"type": "Point", "coordinates": [-89.3167287, 43.0729531]}, "properties": {"amenity": "public_bookcase", "brand": "Little Free Library", "brand:wikidata": "Q6650101", "name": "Little Free Library", "osm_id": 13908474269}}, {"type": "Feature", "geometry": {"type": "Point", "coordinates": [-89.3209267, 43.0730746]}, "properties": {"amenity": "public_bookcase", "brand": "Little Free Library", "brand:wikidata": "Q6650101", "name": "Little Free Library", "osm_id": 13908474270}}, {"type": "Feature", "geometry": {"type": "Point", "coordinates": [-89.3254854, 43.0759776]}, "properties": {"amenity": "public_bookcase", "brand": "Little Free Library", "brand:wikidata": "Q6650101", "name": "Little Free Library", "osm_id": 13908474271}}, {"type": "Feature", "geometry": {"type": "Point", "coordinates": [-89.328952, 43.0751055]}, "properties": {"amenity": "public_bookcase", "brand": "Little Free Library", "brand:wikidata": "Q6650101", "name": "Little Free Library", "osm_id": 13908474272}}, {"type": "Feature", "geometry": {"type": "Point", "coordinates": [-89.312085, 43.068507]}, "properties": {"amenity": "public_bookcase", "brand": "Little Free Library", "brand:wikidata": "Q6650101", "name": "Little Free Library", "osm_id": 13908507973}}, {"type": "Feature", "geometry": {"type": "Point", "coordinates": [-89.3219278, 43.0632097]}, "properties": {"amenity": "public_bookcase", "brand": "Little Free Library", "brand:wikidata": "Q6650101", "name": "Little Free Library", "osm_id": 13908507974}}, {"type": "Feature", "geometry": {"type": "Point", "coordinates": [-89.3432457, 43.0671891]}, "properties": {"amenity": "public_bookcase", "brand": "Little Free Library", "brand:wikidata": "Q6650101", "name": "Little Free Library", "osm_id": 13908507975}}, {"type": "Feature", "geometry": {"type": "Point", "coordinates": [-89.3492508, 43.063765]}, "properties": {"amenity": "public_bookcase", "brand": "Little Free Library", "brand:wikidata": "Q6650101", "name": "Little Free Library", "osm_id": 13908507976}}, {"type": "Feature", "geometry": {"type": "Point", "coordinates": [-89.3452674, 43.0636137]}, "properties": {"amenity": "public_bookcase", "brand": "Little Free Library", "brand:wikidata": "Q6650101", "name": "Little Free Library", "osm_id": 13908549009}}, {"type": "Feature", "geometry": {"type": "Point", "coordinates": [-89.3471787, 43.0613586]}, "properties": {"amenity": "public_bookcase", "brand": "Little Free Library", "brand:wikidata": "Q6650101", "name": "Little Free Libary", "osm_id": 13908549010}}, {"type": "Feature", "geometry": {"type": "Point", "coordinates": [-89.3488852, 43.0626989]}, "properties": {"amenity": "public_bookcase", "brand": "Little Free Library", "brand:wikidata": "Q6650101", "name": "Little Free Library", "osm_id": 13910889239}}, {"type": "Feature", "geometry": {"type": "Point", "coordinates": [-89.3506012, 43.0591822]}, "properties": {"amenity": "public_bookcase", "brand": "Little Free Library", "brand:wikidata": "Q6650101", "name": "Little Free Library", "osm_id": 13910889240}}, {"type": "Feature", "geometry": {"type": "Point", "coordinates": [-89.3468138, 43.0573844]}, "properties": {"amenity": "public_bookcase", "brand": "Little Free Library", "brand:wikidata": "Q6650101", "name": "Little Free Library", "osm_id": 13910889241}}, {"type": "Feature", "geometry": {"type": "Point", "coordinates": [-89.342479, 43.0627333]}, "properties": {"amenity": "public_bookcase", "brand": "Little Free Library", "brand:wikidata": "Q6650101", "name": "Little Free Library", "osm_id": 13910889242}}, {"type": "Feature", "geometry": {"type": "Point", "coordinates": [-89.3408529, 43.0660683]}, "properties": {"amenity": "public_bookcase", "brand": "Little Free Library", "brand:wikidata": "Q6650101", "name": "Little Free Library", "osm_id": 13910891066}}, {"type": "Feature", "geometry": {"type": "Point", "coordinates": [-89.3461004, 43.0652349]}, "properties": {"amenity": "public_bookcase", "brand": "Little Free Library", "brand:wikidata": "Q6650101", "name": "Little Free LIbrary", "osm_id": 13910891067}}, {"type": "Feature", "geometry": {"type": "Point", "coordinates": [-89.3355763, 43.0552491]}, "properties": {"amenity": "public_bookcase", "brand": "Little Free Library", "brand:wikidata": "Q6650101", "name": "Little Free Library", "osm_id": 13910891068}}, {"type": "Feature", "geometry": {"type": "Point", "coordinates": [-89.3425466, 43.0646561]}, "properties": {"amenity": "public_bookcase", "brand": "Little Free Library", "brand:wikidata": "Q6650101", "name": "Little Free Library", "osm_id": 13910891069}}, {"type": "Feature", "geometry": {"type": "Point", "coordinates": [-89.355375, 43.048294]}, "properties": {"amenity": "public_bookcase", "brand": "Little Free Library", "brand:wikidata": "Q6650101", "name": "Little Free Library", "osm_id": 13910893289}}, {"type": "Feature", "geometry": {"type": "Point", "coordinates": [-89.3354428, 43.0586454]}, "properties": {"amenity": "public_bookcase", "brand": "Little Free Library", "brand:wikidata": "Q6650101", "name": "Little Free Library", "osm_id": 13910920043}}, {"type": "Feature", "geometry": {"type": "Point", "coordinates": [-89.3320175, 43.0522397]}, "properties": {"amenity": "public_bookcase", "brand": "Little Free Library", "brand:wikidata": "Q6650101", "name": "Little Free Library", "osm_id": 13910920044}}, {"type": "Feature", "geometry": {"type": "Point", "coordinates": [-89.3296253, 43.0521871]}, "properties": {"amenity": "public_bookcase", "brand": "Little Free Library", "brand:wikidata": "Q6650101", "name": "Little Free Library", "osm_id": 13910920045}}, {"type": "Feature", "geometry": {"type": "Point", "coordinates": [-89.3343917, 43.0498693]}, "properties": {"amenity": "public_bookcase", "brand": "Little Free Library", "brand:wikidata": "Q6650101", "name": "Little Free Library", "osm_id": 13910920046}}, {"type": "Feature", "geometry": {"type": "Point", "coordinates": [-89.3126514, 43.0583145]}, "properties": {"amenity": "public_bookcase", "brand": "Little Free Library", "brand:wikidata": "Q6650101", "name": "Little Free Library", "osm_id": 13910920047}}, {"type": "Feature", "geometry": {"type": "Point", "coordinates": [-89.3185109, 43.0585758]}, "properties": {"amenity": "public_bookcase", "brand": "Little Free Library", "brand:wikidata": "Q6650101", "name": "Little Free Library", "osm_id": 13910920048}}, {"type": "Feature", "geometry": {"type": "Point", "coordinates": [-89.3213098, 43.0545613]}, "properties": {"amenity": "public_bookcase", "brand": "Little Free Library", "brand:wikidata": "Q6650101", "name": "Little Free Library", "osm_id": 13910920049}}, {"type": "Feature", "geometry": {"type": "Point", "coordinates": [-89.3155206, 43.0515965]}, "properties": {"amenity": "public_bookcase", "brand": "Little Free Library", "brand:wikidata": "Q6650101", "name": "Little Free Library", "osm_id": 13910920050}}, {"type": "Feature", "geometry": {"type": "Point", "coordinates": [-89.3102022, 43.052272]}, "properties": {"amenity": "public_bookcase", "brand": "Little Free Library", "brand:wikidata": "Q6650101", "name": "Little Free Library", "osm_id": 13910920051}}]}